{"type":"FeatureCollection","source":"geoBoundaries gbOpen NIC ADM1 (CC BY 4.0), simplificado","features":[{"type":"Feature","properties":{"id":"rio-san-juan","bbox":[-85.1907,10.7077,-83.6607,11.882]},"geometry":{"type":"Polygon","coordinates":[[[-85.1094,11.6402],[-85.1907,11.095],[-85.1856,11.088],[-85.1892,11.0851],[-85.1848,11.0683],[-85.1773,11.0595],[-85.1808,11.0552],[-85.1782,11.0442],[-84.9102,10.9434],[-84.7497,11.0417],[-84.7436,11.0483],[-84.6805,11.0844],[-84.6662,11.0724],[-84.6061,11.0384],[-84.5748,11.0511],[-84.5645,11.0331],[-84.4859,11.0009],[-84.45,10.9621],[-84.4198,10.9554],[-84.3996,10.9754],[-84.3766,10.9778],[-84.3587,10.9958],[-84.3417,10.9749],[-84.348,10.9661],[-84.3506,10.9513],[-84.3356,10.945],[-84.3326,10.9321],[-84.3229,10.918],[-84.3166,10.9164],[-84.3103,10.9219],[-84.3054,10.9157],[-84.2993,10.9168],[-84.2918,10.9111],[-84.2833,10.8936],[-84.2573,10.891],[-84.2442,10.885],[-84.2395,10.8771],[-84.2253,10.8734],[-84.2193,10.8636],[-84.2147,10.8407],[-84.2208,10.8245],[-84.2367,10.8201],[-84.2376,10.8156],[-84.2288,10.8115],[-84.2242,10.8019],[-84.2061,10.7974],[-84.2046,10.7946],[-84.2077,10.7898],[-84.2027,10.7818],[-84.1912,10.7898],[-84.1643,10.7852],[-84.137,10.787],[-84.1327,10.7839],[-84.1321,10.7718],[-84.1251,10.7644],[-84.1167,10.765],[-84.1061,10.7742],[-84.102,10.7744],[-84.0873,10.7621],[-84.0703,10.7598],[-84.0622,10.7639],[-84.0618,10.7729],[-84.0553,10.7785],[-84.0509,10.7795],[-84.0412,10.7711],[-84.0363,10.7711],[-84.0311,10.7881],[-84.0273,10.792],[-84.021,10.7916],[-84.0023,10.7623],[-83.9928,10.7586],[-83.9789,10.7469],[-83.9709,10.7449],[-83.969,10.7327],[-83.9652,10.7277],[-83.9369,10.721],[-83.9319,10.7077],[-83.9137,10.711],[-83.8886,10.7217],[-83.8696,10.7159],[-83.8627,10.7176],[-83.8397,10.7439],[-83.8016,10.7532],[-83.7944,10.7674],[-83.7896,10.7706],[-83.7648,10.7689],[-83.7609,10.7746],[-83.722,10.7854],[-83.7154,10.7924],[-83.696,10.7873],[-83.6689,10.7988],[-83.6607,10.8202],[-83.6704,10.8358],[-83.675,10.8528],[-83.6669,10.8801],[-83.6683,10.8888],[-83.6831,10.8983],[-83.6765,10.903],[-83.6793,10.9094],[-83.6757,10.9118],[-83.6806,10.9163],[-83.6888,10.9345],[-83.6976,10.9344],[-83.6987,10.9392],[-83.7041,10.9385],[-83.7041,10.9417],[-83.7112,10.9437],[-83.7105,10.9416],[-83.7157,10.9418],[-83.7182,10.9385],[-83.7169,10.9343],[-83.7137,10.9345],[-83.7157,10.9276],[-83.7124,10.9285],[-83.7104,10.9345],[-83.6998,10.9331],[-83.7011,10.9301],[-83.71,10.9311],[-83.7111,10.9282],[-83.7072,10.9285],[-83.7094,10.9232],[-83.7234,10.9305],[-83.7376,10.927],[-83.7251,10.9312],[-83.7286,10.9352],[-83.7247,10.9333],[-83.7248,10.9386],[-83.7193,10.9378],[-83.7191,10.9406],[-83.7312,10.9468],[-83.7488,10.9624],[-83.7632,10.9793],[-83.7994,11.0346],[-83.8167,11.0515],[-83.8438,11.0493],[-83.87,11.0541],[-83.8763,11.0512],[-83.8807,11.0432],[-83.8852,11.0442],[-83.8892,11.0551],[-83.8965,11.0587],[-83.8951,11.0645],[-83.8912,11.0647],[-83.8916,11.0731],[-83.8978,11.0756],[-83.9048,11.0848],[-83.901,11.1],[-83.9027,11.1109],[-83.8991,11.112],[-83.9038,11.1218],[-83.9073,11.122],[-83.9105,11.1171],[-83.9146,11.1202],[-83.9201,11.1098],[-83.9288,11.1084],[-83.9349,11.1158],[-83.9356,11.1116],[-83.946,11.1134],[-83.9476,11.1065],[-83.9439,11.109],[-83.9445,11.1034],[-83.9622,11.0999],[-83.9609,11.0966],[-83.9641,11.0939],[-83.9665,11.0992],[-83.9641,11.1023],[-83.9731,11.1001],[-83.9782,11.1077],[-83.9822,11.1022],[-83.9874,11.1036],[-83.9885,11.098],[-83.9933,11.1011],[-84.002,11.0997],[-84.0075,11.0899],[-84.0104,11.094],[-84.0167,11.0882],[-84.0238,11.0889],[-84.0215,11.0865],[-84.0273,11.0826],[-84.0286,11.0858],[-84.0353,11.0875],[-84.0383,11.0934],[-84.0445,11.0934],[-84.0437,11.0986],[-84.0495,11.1026],[-84.0474,11.1052],[-84.0514,11.1081],[-84.0532,11.1166],[-84.051,11.1206],[-84.0574,11.1233],[-84.0476,11.1291],[-84.0514,11.1282],[-84.0523,11.1318],[-84.059,11.1285],[-84.0614,11.1335],[-84.0655,11.1292],[-84.0712,11.1323],[-84.0855,11.1216],[-84.0962,11.1314],[-84.1039,11.129],[-84.1099,11.1344],[-84.1201,11.1307],[-84.1284,11.134],[-84.1322,11.1304],[-84.1387,11.1352],[-84.1489,11.1333],[-84.15,11.1375],[-84.158,11.1386],[-84.1606,11.1432],[-84.1711,11.1429],[-84.2177,11.2309],[-84.2989,11.2771],[-84.3263,11.2814],[-84.4368,11.4005],[-84.4542,11.4124],[-84.4757,11.4196],[-84.5202,11.4586],[-84.5461,11.4549],[-84.5627,11.4853],[-84.5638,11.5215],[-84.5543,11.5443],[-84.5649,11.5674],[-84.5527,11.5789],[-84.5516,11.5918],[-84.5328,11.5967],[-84.5233,11.6133],[-84.5303,11.6368],[-84.5317,11.6593],[-84.5683,11.7013],[-84.5461,11.7737],[-84.5643,11.7779],[-84.5791,11.8149],[-84.5774,11.8254],[-84.581,11.8304],[-84.5869,11.8299],[-84.5892,11.837],[-84.5961,11.8396],[-84.5977,11.8485],[-84.6039,11.8479],[-84.6187,11.8354],[-84.642,11.8386],[-84.6424,11.8496],[-84.6522,11.8472],[-84.6596,11.8534],[-84.6583,11.8709],[-84.666,11.8753],[-84.6715,11.8733],[-84.6736,11.8771],[-84.6793,11.8778],[-84.6975,11.8757],[-84.7062,11.8804],[-84.7197,11.877],[-84.7289,11.882],[-84.7418,11.8754],[-84.7438,11.8786],[-84.7515,11.8794],[-84.7587,11.8755],[-84.7681,11.8801],[-84.8078,11.8772],[-84.8101,11.8752],[-84.8098,11.8633],[-84.8212,11.8593],[-84.8246,11.8608],[-84.8241,11.8573],[-84.8273,11.8575],[-84.8272,11.8602],[-84.8323,11.8585],[-84.8318,11.8499],[-84.8386,11.8407],[-84.8555,11.8363],[-84.8545,11.8324],[-84.8617,11.8243],[-84.8666,11.8245],[-84.8692,11.8201],[-84.8754,11.8182],[-84.877,11.8076],[-84.8801,11.8099],[-84.882,11.7998],[-84.8846,11.7995],[-84.8841,11.8033],[-84.8875,11.7967],[-84.9106,11.7948],[-84.917,11.7869],[-84.9201,11.7893],[-84.9305,11.7841],[-84.9514,11.7836],[-84.9516,11.7783],[-84.9577,11.7802],[-84.955,11.774],[-84.9584,11.7714],[-84.9588,11.7653],[-84.9629,11.7633],[-84.9664,11.7672],[-84.9698,11.7594],[-84.9727,11.7608],[-84.9686,11.756],[-84.9728,11.7531],[-84.9658,11.7501],[-84.9749,11.7408],[-84.974,11.737],[-84.9783,11.7393],[-84.9786,11.7297],[-84.9884,11.7338],[-84.9883,11.7282],[-84.9976,11.7251],[-85.0019,11.7174],[-84.9987,11.7176],[-84.9981,11.7119],[-85.0051,11.7147],[-85.0043,11.7093],[-85.0117,11.7061],[-85.0132,11.7001],[-85.02,11.7024],[-85.0185,11.696],[-85.0208,11.6989],[-85.0293,11.695],[-85.0357,11.7054],[-85.038,11.7023],[-85.0435,11.707],[-85.0475,11.699],[-85.0501,11.7015],[-85.0506,11.698],[-85.0556,11.6959],[-85.0555,11.6915],[-85.0587,11.6943],[-85.0579,11.6907],[-85.0642,11.6902],[-85.0731,11.6749],[-85.0796,11.6715],[-85.0925,11.6744],[-85.0913,11.669],[-85.0947,11.6637],[-85.107,11.662],[-85.108,11.6549],[-85.1167,11.6465],[-85.1094,11.6402]]]}},{"type":"Feature","properties":{"id":"boaco","bbox":[-85.9871,11.7096,-84.9522,12.8008]},"geometry":{"type":"Polygon","coordinates":[[[-85.9783,12.5344],[-85.9801,12.5262],[-85.9871,12.5174],[-85.9833,12.5083],[-85.9868,12.506],[-85.9819,12.504],[-85.9838,12.4987],[-85.9781,12.4955],[-85.9796,12.4909],[-85.9746,12.4841],[-85.9779,12.4834],[-85.9781,12.4764],[-85.9743,12.4703],[-85.9767,12.4667],[-85.9678,12.4618],[-85.9636,12.4512],[-85.9678,12.4503],[-85.9615,12.4438],[-85.9629,12.4405],[-85.9557,12.4394],[-85.9564,12.4357],[-85.9513,12.4337],[-85.9536,12.4301],[-85.9454,12.4258],[-85.9445,12.4222],[-85.9346,12.4186],[-85.9392,12.4176],[-85.9279,12.4155],[-85.9261,12.4028],[-85.9128,12.395],[-85.9234,12.3575],[-85.9296,12.3571],[-85.9333,12.3508],[-85.9285,12.3439],[-85.9039,12.3252],[-85.8887,12.3251],[-85.832,12.2762],[-85.7943,12.2791],[-85.8106,12.2657],[-85.8098,12.2559],[-85.8174,12.2478],[-85.8164,12.2436],[-85.8243,12.228],[-85.8214,12.2196],[-85.8256,12.2026],[-85.8125,12.1866],[-85.8173,12.1493],[-85.813,12.1413],[-85.7967,12.1416],[-85.7932,12.1397],[-85.7938,12.1357],[-85.7859,12.1319],[-85.7858,12.1219],[-85.6704,11.7096],[-85.6744,12.0707],[-85.6668,12.1137],[-85.6403,12.1698],[-85.6383,12.2375],[-85.6322,12.2955],[-85.6178,12.3435],[-85.5958,12.3589],[-85.5882,12.3318],[-85.5788,12.3242],[-85.5752,12.3317],[-85.5564,12.3371],[-85.5528,12.3436],[-85.5456,12.3376],[-85.5358,12.3373],[-85.5302,12.3305],[-85.5156,12.3275],[-85.512,12.3214],[-85.4962,12.3286],[-85.4901,12.3272],[-85.4858,12.3323],[-85.473,12.3207],[-85.4738,12.3182],[-85.4622,12.3107],[-85.4458,12.3265],[-85.4373,12.3275],[-85.4263,12.3173],[-85.3477,12.3463],[-85.33,12.3585],[-85.308,12.355],[-85.2885,12.3645],[-85.2547,12.3639],[-85.2201,12.4125],[-85.1896,12.4386],[-85.1724,12.4284],[-85.1314,12.4315],[-85.1318,12.4281],[-85.1225,12.4254],[-85.1213,12.4204],[-85.1138,12.4228],[-85.1079,12.4197],[-85.1075,12.4248],[-85.1008,12.4328],[-85.09,12.4344],[-85.0905,12.4384],[-85.0877,12.4433],[-85.0844,12.4432],[-85.069,12.4781],[-85.0184,12.5022],[-85.0298,12.5269],[-85.0175,12.5457],[-85.0112,12.5619],[-84.9751,12.6106],[-84.9746,12.6152],[-84.9522,12.6264],[-84.98,12.6624],[-84.9894,12.6692],[-84.9898,12.6751],[-84.9973,12.6815],[-84.996,12.6844],[-85.0001,12.6834],[-85.0008,12.6892],[-85.0074,12.6923],[-85.0049,12.7082],[-85.0088,12.7161],[-85.0061,12.7246],[-85.0082,12.7273],[-85.005,12.7304],[-85.0103,12.7364],[-85.0164,12.7373],[-85.0158,12.7442],[-85.0226,12.7553],[-85.0293,12.7535],[-85.0476,12.7735],[-85.0517,12.7821],[-85.0579,12.7792],[-85.0788,12.7931],[-85.0809,12.8008],[-85.0905,12.7985],[-85.096,12.8004],[-85.1198,12.7885],[-85.1251,12.7794],[-85.1252,12.7691],[-85.1335,12.7667],[-85.1306,12.7525],[-85.1395,12.7519],[-85.1327,12.741],[-85.1256,12.739],[-85.1272,12.7353],[-85.1334,12.7244],[-85.1469,12.7216],[-85.1528,12.7144],[-85.1504,12.7043],[-85.166,12.7001],[-85.161,12.6831],[-85.1553,12.6767],[-85.1572,12.6718],[-85.1541,12.662],[-85.1582,12.6568],[-85.1567,12.6521],[-85.1653,12.6499],[-85.1764,12.6598],[-85.1828,12.6579],[-85.189,12.6504],[-85.1818,12.6341],[-85.191,12.6229],[-85.1945,12.6253],[-85.1953,12.6338],[-85.2147,12.6363],[-85.231,12.6191],[-85.2357,12.6253],[-85.2419,12.627],[-85.2398,12.6412],[-85.2537,12.6506],[-85.2591,12.6587],[-85.2611,12.6701],[-85.2708,12.6596],[-85.2796,12.6652],[-85.2912,12.6564],[-85.2988,12.6571],[-85.2869,12.6766],[-85.2937,12.6901],[-85.3186,12.6824],[-85.3243,12.6937],[-85.3305,12.6986],[-85.3295,12.7064],[-85.3353,12.7083],[-85.3386,12.7039],[-85.3511,12.7056],[-85.3594,12.7119],[-85.3655,12.6959],[-85.3687,12.6954],[-85.3787,12.7227],[-85.3923,12.7336],[-85.4066,12.7388],[-85.4086,12.743],[-85.4329,12.7205],[-85.451,12.7189],[-85.4573,12.7136],[-85.4605,12.7046],[-85.4561,12.7011],[-85.4578,12.699],[-85.4705,12.7026],[-85.4734,12.7002],[-85.4778,12.714],[-85.4905,12.7104],[-85.4944,12.7151],[-85.5013,12.7094],[-85.5078,12.7165],[-85.5103,12.7095],[-85.5161,12.7077],[-85.5203,12.7018],[-85.5239,12.706],[-85.532,12.7057],[-85.5336,12.7101],[-85.5442,12.7126],[-85.5533,12.7029],[-85.5569,12.6923],[-85.5619,12.6886],[-85.5686,12.6891],[-85.5696,12.6845],[-85.5668,12.6865],[-85.5646,12.6815],[-85.5693,12.6833],[-85.5683,12.679],[-85.5763,12.673],[-85.5849,12.6718],[-85.5877,12.6761],[-85.5929,12.671],[-85.5987,12.6734],[-85.6049,12.6654],[-85.6158,12.6693],[-85.6279,12.662],[-85.6299,12.6662],[-85.6321,12.6609],[-85.6379,12.6629],[-85.6438,12.6575],[-85.6408,12.6575],[-85.6416,12.6547],[-85.6473,12.6549],[-85.6473,12.6524],[-85.6542,12.656],[-85.6594,12.6508],[-85.6608,12.656],[-85.667,12.6583],[-85.6801,12.6541],[-85.6851,12.6604],[-85.7257,12.6601],[-85.768,12.6381],[-85.8083,12.6487],[-85.8362,12.6472],[-85.8612,12.633],[-85.8717,12.6373],[-85.885,12.6351],[-85.8891,12.633],[-85.889,12.6275],[-85.8941,12.626],[-85.8919,12.6214],[-85.8863,12.6202],[-85.8877,12.6052],[-85.9,12.5864],[-85.9064,12.5822],[-85.9101,12.5838],[-85.9223,12.5694],[-85.9366,12.5716],[-85.9435,12.5552],[-85.9671,12.5501],[-85.9716,12.5389],[-85.9783,12.5344]]]}},{"type":"Feature","properties":{"id":"chontales","bbox":[-85.6744,11.3671,-84.5249,12.625]},"geometry":{"type":"Polygon","coordinates":[[[-84.6187,11.8354],[-84.602,11.8491],[-84.6057,11.8675],[-84.5886,11.8664],[-84.584,11.8592],[-84.565,11.8546],[-84.5375,11.8726],[-84.5249,11.873],[-84.5497,11.9058],[-84.5757,11.9223],[-84.5903,11.9409],[-84.6722,11.9724],[-84.7263,12.0019],[-84.7247,12.0235],[-84.7349,12.127],[-84.7579,12.1583],[-84.7575,12.1665],[-84.7537,12.1715],[-84.7639,12.1769],[-84.7717,12.1953],[-84.8008,12.2403],[-84.7972,12.2473],[-84.7994,12.2516],[-84.7909,12.2561],[-84.7753,12.2781],[-84.7956,12.3098],[-84.8022,12.3386],[-84.8449,12.3541],[-84.8471,12.3777],[-84.863,12.4076],[-84.8724,12.4117],[-84.8569,12.4258],[-84.8591,12.4324],[-84.849,12.448],[-84.8502,12.4574],[-84.845,12.4619],[-84.8511,12.4719],[-84.8391,12.4771],[-84.8374,12.4818],[-84.8424,12.4875],[-84.8418,12.4911],[-84.8509,12.4878],[-84.8694,12.4936],[-84.8734,12.4987],[-84.8731,12.5082],[-84.8796,12.5189],[-84.883,12.5158],[-84.8853,12.5177],[-84.887,12.5264],[-84.89,12.5279],[-84.8887,12.5431],[-84.8942,12.5512],[-84.8943,12.5631],[-84.8983,12.5698],[-84.9051,12.5777],[-84.9143,12.5813],[-84.9213,12.5909],[-84.9284,12.5934],[-84.9323,12.6039],[-84.9309,12.6104],[-84.9358,12.6121],[-84.9336,12.6138],[-84.9449,12.6161],[-84.9446,12.6188],[-84.9481,12.6174],[-84.9522,12.625],[-84.965,12.6218],[-84.9746,12.6152],[-84.9751,12.6106],[-85.0112,12.5619],[-85.0175,12.5457],[-85.0298,12.5269],[-85.0184,12.5022],[-85.069,12.4781],[-85.0844,12.4432],[-85.0877,12.4433],[-85.0905,12.4384],[-85.09,12.4344],[-85.1008,12.4328],[-85.1075,12.4248],[-85.1079,12.4197],[-85.1138,12.4228],[-85.1213,12.4204],[-85.1225,12.4254],[-85.1318,12.4281],[-85.1314,12.4315],[-85.1724,12.4284],[-85.1896,12.4386],[-85.2201,12.4125],[-85.2547,12.3639],[-85.2885,12.3645],[-85.308,12.355],[-85.33,12.3585],[-85.3477,12.3463],[-85.4263,12.3173],[-85.4373,12.3275],[-85.4458,12.3265],[-85.4622,12.3107],[-85.4738,12.3182],[-85.473,12.3207],[-85.4858,12.3323],[-85.4901,12.3272],[-85.4962,12.3286],[-85.512,12.3214],[-85.5156,12.3275],[-85.5302,12.3305],[-85.5358,12.3373],[-85.5456,12.3376],[-85.5528,12.3436],[-85.5564,12.3371],[-85.5752,12.3317],[-85.5788,12.3242],[-85.5882,12.3318],[-85.5958,12.3589],[-85.6178,12.3435],[-85.6322,12.2955],[-85.6383,12.2375],[-85.6403,12.1698],[-85.6668,12.1137],[-85.6744,12.0707],[-85.6704,11.7096],[-85.1497,11.3671],[-85.1094,11.6402],[-85.1167,11.6465],[-85.108,11.6549],[-85.107,11.662],[-85.0947,11.6637],[-85.0913,11.669],[-85.0925,11.6744],[-85.0796,11.6715],[-85.0731,11.6749],[-85.0642,11.6902],[-85.0579,11.6907],[-85.0587,11.6943],[-85.0555,11.6915],[-85.0556,11.6959],[-85.0506,11.698],[-85.0501,11.7015],[-85.0475,11.699],[-85.0435,11.707],[-85.038,11.7023],[-85.0357,11.7054],[-85.0293,11.695],[-85.0208,11.6989],[-85.0185,11.696],[-85.02,11.7024],[-85.0132,11.7001],[-85.0117,11.7061],[-85.0043,11.7093],[-85.0051,11.7147],[-84.9981,11.7119],[-84.9987,11.7176],[-85.0019,11.7174],[-84.9976,11.7251],[-84.9883,11.7282],[-84.9884,11.7338],[-84.9786,11.7297],[-84.9783,11.7393],[-84.974,11.737],[-84.9749,11.7408],[-84.9658,11.7501],[-84.9728,11.7531],[-84.9686,11.756],[-84.9727,11.7608],[-84.9698,11.7594],[-84.9664,11.7672],[-84.9629,11.7633],[-84.9588,11.7653],[-84.9584,11.7714],[-84.955,11.774],[-84.9577,11.7802],[-84.9516,11.7783],[-84.9514,11.7836],[-84.9305,11.7841],[-84.9201,11.7893],[-84.917,11.7869],[-84.9106,11.7948],[-84.8875,11.7967],[-84.8841,11.8033],[-84.8846,11.7995],[-84.882,11.7998],[-84.8801,11.8099],[-84.877,11.8076],[-84.8754,11.8182],[-84.8692,11.8201],[-84.8666,11.8245],[-84.8617,11.8243],[-84.8545,11.8324],[-84.8555,11.8363],[-84.8386,11.8407],[-84.8318,11.8499],[-84.8323,11.8585],[-84.8272,11.8602],[-84.8273,11.8575],[-84.8241,11.8573],[-84.8246,11.8608],[-84.8212,11.8593],[-84.8098,11.8633],[-84.8101,11.8752],[-84.8078,11.8772],[-84.7681,11.8801],[-84.7587,11.8755],[-84.7515,11.8794],[-84.7438,11.8786],[-84.7418,11.8754],[-84.7289,11.882],[-84.7197,11.877],[-84.7062,11.8804],[-84.6975,11.8757],[-84.6736,11.8771],[-84.6715,11.8733],[-84.666,11.8753],[-84.6583,11.8709],[-84.6596,11.8534],[-84.6522,11.8472],[-84.6424,11.8496],[-84.642,11.8386],[-84.6187,11.8354]]]}},{"type":"Feature","properties":{"id":"managua","bbox":[-86.6745,11.7201,-85.7943,12.6415]},"geometry":{"type":"Polygon","coordinates":[[[-85.9783,12.5344],[-85.9826,12.5418],[-85.9901,12.5424],[-85.9949,12.5476],[-85.9984,12.542],[-86.0497,12.5479],[-86.0519,12.5567],[-86.0496,12.5675],[-86.1087,12.5882],[-86.1379,12.5888],[-86.1456,12.5933],[-86.1589,12.5896],[-86.1582,12.5995],[-86.1968,12.6276],[-86.221,12.6312],[-86.2349,12.6251],[-86.2508,12.6368],[-86.2767,12.6367],[-86.2801,12.6415],[-86.287,12.6408],[-86.2927,12.6344],[-86.3103,12.6349],[-86.3155,12.6302],[-86.3284,12.6288],[-86.33,12.6129],[-86.3479,12.6036],[-86.3532,12.6041],[-86.355,12.5883],[-86.361,12.5839],[-86.3575,12.5808],[-86.3648,12.5774],[-86.3616,12.5693],[-86.3717,12.5579],[-86.3674,12.5482],[-86.3693,12.5429],[-86.3763,12.5382],[-86.3727,12.5271],[-86.3791,12.525],[-86.3765,12.5192],[-86.3748,12.5242],[-86.3728,12.5232],[-86.3778,12.5163],[-86.3741,12.5136],[-86.3713,12.5038],[-86.3631,12.4996],[-86.3574,12.5023],[-86.3534,12.5008],[-86.3505,12.495],[-86.3573,12.4933],[-86.3528,12.4858],[-86.3542,12.4795],[-86.3585,12.4812],[-86.3596,12.4778],[-86.3177,12.3595],[-86.4762,12.2699],[-86.489,12.2597],[-86.5304,12.1907],[-86.5155,12.1898],[-86.4986,12.1838],[-86.5013,12.173],[-86.5092,12.1675],[-86.5067,12.1563],[-86.5237,12.1498],[-86.5348,12.1406],[-86.5368,12.1339],[-86.5347,12.1249],[-86.5445,12.1205],[-86.5485,12.1135],[-86.5611,12.1079],[-86.5797,12.0917],[-86.5822,12.0789],[-86.5918,12.0761],[-86.5991,12.0805],[-86.6028,12.0773],[-86.6053,12.082],[-86.6258,12.0906],[-86.6415,12.0769],[-86.6461,12.0757],[-86.6509,12.0787],[-86.6634,12.0735],[-86.655,12.0535],[-86.6488,12.0479],[-86.6497,12.0441],[-86.6421,12.0404],[-86.6417,12.0272],[-86.6455,12.0198],[-86.654,12.0182],[-86.6534,12.015],[-86.6722,12.0096],[-86.6745,11.9987],[-86.6672,11.9952],[-86.6649,11.9925],[-86.6674,11.9904],[-86.6383,11.9623],[-86.6245,11.9407],[-86.6215,11.9414],[-86.6247,11.9466],[-86.6219,11.945],[-86.6207,11.9425],[-86.6214,11.9401],[-86.6232,11.9397],[-86.6175,11.9288],[-86.6194,11.9196],[-86.617,11.9072],[-86.572,11.8671],[-86.5393,11.831],[-86.5211,11.8033],[-86.5174,11.7876],[-86.5214,11.7817],[-86.5196,11.7759],[-86.5053,11.769],[-86.4417,11.7201],[-86.4384,11.7297],[-86.4442,11.7439],[-86.4494,11.7485],[-86.4417,11.7509],[-86.4456,11.7538],[-86.4394,11.7562],[-86.4386,11.7667],[-86.424,11.7739],[-86.4215,11.781],[-86.418,11.7808],[-86.4157,11.7848],[-86.4091,11.7855],[-86.4081,11.7886],[-86.4008,11.7871],[-86.3918,11.7932],[-86.3908,11.8011],[-86.3795,11.8108],[-86.3749,11.8258],[-86.3699,11.8281],[-86.3645,11.8424],[-86.351,11.8576],[-86.3536,11.8616],[-86.3449,11.873],[-86.3436,11.8969],[-86.3259,11.9129],[-86.328,11.9212],[-86.3085,11.9345],[-86.2637,11.9922],[-86.2407,11.9726],[-86.1907,11.9805],[-86.1743,12.0256],[-86.2108,12.0643],[-86.1707,12.0917],[-86.1451,12.0987],[-86.1257,12.1412],[-86.097,12.1424],[-86.0695,12.1368],[-86.0661,12.1444],[-86.0542,12.1535],[-86.0485,12.1544],[-86.0327,12.1531],[-86.0229,12.1466],[-85.927,12.1879],[-85.9144,12.2005],[-85.919,12.2107],[-85.8992,12.2146],[-85.8928,12.2116],[-85.889,12.2145],[-85.8825,12.2095],[-85.8795,12.2136],[-85.8774,12.209],[-85.8679,12.2067],[-85.863,12.2011],[-85.8577,12.2034],[-85.8537,12.2013],[-85.8236,12.212],[-85.8214,12.2196],[-85.8243,12.228],[-85.8164,12.2436],[-85.8174,12.2478],[-85.8098,12.2559],[-85.8106,12.2657],[-85.7943,12.2791],[-85.832,12.2762],[-85.8887,12.3251],[-85.9039,12.3252],[-85.9285,12.3439],[-85.9333,12.3508],[-85.9296,12.3571],[-85.9234,12.3575],[-85.9128,12.395],[-85.9261,12.4028],[-85.9279,12.4155],[-85.9392,12.4176],[-85.9346,12.4186],[-85.9445,12.4222],[-85.9454,12.4258],[-85.9536,12.4301],[-85.9513,12.4337],[-85.9564,12.4357],[-85.9557,12.4394],[-85.9629,12.4405],[-85.9615,12.4438],[-85.9678,12.4503],[-85.9636,12.4512],[-85.9678,12.4618],[-85.9767,12.4667],[-85.9743,12.4703],[-85.9781,12.4764],[-85.9779,12.4834],[-85.9746,12.4841],[-85.9796,12.4909],[-85.9781,12.4955],[-85.9838,12.4987],[-85.9819,12.504],[-85.9868,12.506],[-85.9833,12.5083],[-85.9871,12.5174],[-85.9801,12.5262],[-85.9783,12.5344]]]}},{"type":"Feature","properties":{"id":"leon","bbox":[-87.1188,11.9904,-86.2732,13.1281]},"geometry":{"type":"Polygon","coordinates":[[[-86.2822,12.641],[-86.2871,12.6591],[-86.2802,12.669],[-86.2835,12.6747],[-86.2732,12.6855],[-86.2817,12.6953],[-86.2793,12.6996],[-86.2834,12.7049],[-86.2798,12.714],[-86.2816,12.7187],[-86.2786,12.7219],[-86.2824,12.7276],[-86.2764,12.7335],[-86.2755,12.7503],[-86.2847,12.7583],[-86.2883,12.8479],[-86.3096,12.868],[-86.3419,12.8739],[-86.3575,12.8809],[-86.3649,12.8722],[-86.3802,12.8682],[-86.3912,12.8894],[-86.4225,12.8931],[-86.4338,12.8981],[-86.4379,12.9201],[-86.4275,12.9265],[-86.4315,12.9464],[-86.4216,12.9572],[-86.4251,12.9681],[-86.4233,12.973],[-86.4181,12.9733],[-86.4188,12.9919],[-86.4508,13.018],[-86.4581,13.0139],[-86.4719,13.0394],[-86.4686,13.0419],[-86.4727,13.0462],[-86.4684,13.0537],[-86.4723,13.0666],[-86.4691,13.0679],[-86.488,13.0988],[-86.4921,13.1142],[-86.5361,13.1253],[-86.5681,13.1245],[-86.5943,13.1163],[-86.615,13.1279],[-86.6374,13.1281],[-86.6373,13.11],[-86.7045,13.1147],[-86.7084,13.1124],[-86.7058,13.1062],[-86.7163,13.0974],[-86.732,13.1021],[-86.7387,13.0885],[-86.7433,13.0903],[-86.7467,13.088],[-86.7391,13.0824],[-86.7362,13.0712],[-86.7315,13.0674],[-86.7303,13.0315],[-86.7158,13.0259],[-86.7068,13.0126],[-86.7118,13.0062],[-86.7118,13.0007],[-86.6962,12.9868],[-86.6917,12.9768],[-86.6825,12.9746],[-86.6821,12.9668],[-86.675,12.9624],[-86.6861,12.9487],[-86.6858,12.9175],[-86.6728,12.8932],[-86.6608,12.8342],[-86.6695,12.7951],[-86.7194,12.7623],[-86.7355,12.7752],[-86.7794,12.7458],[-86.79,12.7465],[-86.7935,12.7513],[-86.8136,12.742],[-86.8201,12.7434],[-86.8153,12.7323],[-86.8157,12.7176],[-86.8085,12.7072],[-86.8325,12.7025],[-86.8463,12.6901],[-86.8706,12.6792],[-86.875,12.6651],[-86.873,12.6578],[-86.8755,12.6486],[-86.9079,12.6144],[-86.9208,12.61],[-86.9242,12.556],[-86.9341,12.5504],[-86.9388,12.5246],[-86.9564,12.5169],[-86.9527,12.5116],[-86.9586,12.5038],[-86.9632,12.5037],[-86.965,12.5103],[-86.9937,12.4837],[-87.0033,12.4786],[-87.0251,12.4748],[-87.038,12.4685],[-87.0552,12.4714],[-87.077,12.4654],[-87.0853,12.4681],[-87.0938,12.465],[-87.1038,12.4665],[-87.1188,12.4615],[-87.1184,12.4524],[-87.106,12.4341],[-87.0931,12.4276],[-87.0841,12.4103],[-87.0767,12.4127],[-87.0718,12.409],[-87.077,12.408],[-87.0732,12.4059],[-87.078,12.4018],[-87.0528,12.3852],[-87.024,12.3589],[-86.9521,12.3114],[-86.8149,12.2302],[-86.7656,12.1924],[-86.7646,12.1836],[-86.7627,12.1869],[-86.7585,12.1815],[-86.7604,12.1738],[-86.752,12.1735],[-86.7541,12.1702],[-86.752,12.1685],[-86.7613,12.1741],[-86.7606,12.1822],[-86.7643,12.1799],[-86.7652,12.1834],[-86.7695,12.1825],[-86.7697,12.1779],[-86.7569,12.1586],[-86.7599,12.1509],[-86.7554,12.1483],[-86.7537,12.1558],[-86.7558,12.1573],[-86.7559,12.1601],[-86.7531,12.1591],[-86.7552,12.1576],[-86.7515,12.1583],[-86.7533,12.1491],[-86.7489,12.1462],[-86.7486,12.148],[-86.7465,12.1483],[-86.7456,12.1471],[-86.7515,12.1442],[-86.7476,12.1405],[-86.7445,12.1181],[-86.7371,12.1093],[-86.7341,12.0947],[-86.7049,12.0516],[-86.7032,12.0428],[-86.6917,12.0301],[-86.6836,12.0062],[-86.6674,11.9904],[-86.6649,11.9925],[-86.6745,11.9987],[-86.6749,12.006],[-86.6722,12.0096],[-86.6534,12.015],[-86.6525,12.0197],[-86.6455,12.0198],[-86.641,12.0379],[-86.6497,12.0441],[-86.6488,12.0479],[-86.655,12.0535],[-86.6634,12.0735],[-86.6509,12.0787],[-86.6461,12.0757],[-86.6415,12.0769],[-86.6258,12.0906],[-86.6053,12.082],[-86.6028,12.0773],[-86.5991,12.0805],[-86.5918,12.0761],[-86.5837,12.078],[-86.5792,12.0859],[-86.5797,12.0917],[-86.5611,12.1079],[-86.5485,12.1135],[-86.5445,12.1205],[-86.5347,12.1249],[-86.5368,12.1339],[-86.5348,12.1406],[-86.5237,12.1498],[-86.5067,12.1563],[-86.5092,12.1675],[-86.5013,12.173],[-86.4986,12.1838],[-86.5155,12.1898],[-86.5304,12.1907],[-86.489,12.2597],[-86.4762,12.2699],[-86.3177,12.3595],[-86.3596,12.4778],[-86.3585,12.4812],[-86.3542,12.4795],[-86.3528,12.4858],[-86.3573,12.4933],[-86.3505,12.495],[-86.3534,12.5008],[-86.3574,12.5023],[-86.3631,12.4996],[-86.3713,12.5038],[-86.3741,12.5136],[-86.3778,12.5163],[-86.3742,12.518],[-86.3728,12.5232],[-86.3748,12.5242],[-86.3765,12.5192],[-86.3791,12.525],[-86.3727,12.5271],[-86.3763,12.5382],[-86.3693,12.5429],[-86.3674,12.5482],[-86.3717,12.5579],[-86.3616,12.5693],[-86.3648,12.5774],[-86.3575,12.5808],[-86.361,12.5839],[-86.355,12.5883],[-86.3532,12.6041],[-86.3479,12.6036],[-86.33,12.6129],[-86.3284,12.6288],[-86.3155,12.6302],[-86.3103,12.6349],[-86.2927,12.6344],[-86.287,12.6408],[-86.2822,12.641]]]}},{"type":"Feature","properties":{"id":"chinandega","bbox":[-87.6919,12.4018,-86.6608,13.3133]},"geometry":{"type":"Polygon","coordinates":[[[-86.7362,13.0974],[-86.7398,13.1227],[-86.7463,13.1342],[-86.7473,13.1472],[-86.744,13.1501],[-86.7462,13.1551],[-86.7437,13.1569],[-86.7465,13.1624],[-86.7285,13.193],[-86.718,13.1915],[-86.7209,13.1971],[-86.713,13.2037],[-86.7156,13.2099],[-86.7083,13.2266],[-86.7132,13.2323],[-86.7252,13.233],[-86.739,13.243],[-86.7396,13.2497],[-86.7543,13.2675],[-86.7913,13.2944],[-86.7929,13.2985],[-86.7973,13.2982],[-86.7994,13.3027],[-86.8275,13.3133],[-86.8337,13.3115],[-86.8352,13.3057],[-86.8506,13.3005],[-86.8668,13.3046],[-86.8733,13.2958],[-86.8763,13.2861],[-86.8747,13.2808],[-86.8794,13.2811],[-86.8955,13.271],[-86.9091,13.2688],[-86.9157,13.26],[-86.9056,13.2526],[-86.9077,13.2453],[-86.9132,13.2429],[-86.9112,13.2376],[-86.9139,13.2333],[-86.9095,13.2234],[-86.9226,13.2239],[-86.9158,13.2125],[-86.9174,13.2082],[-86.9214,13.2076],[-86.9202,13.1998],[-86.9243,13.1923],[-86.9319,13.1888],[-86.933,13.1793],[-86.9146,13.1588],[-86.9137,13.1512],[-86.9238,13.1477],[-86.9237,13.1326],[-86.9344,13.1256],[-86.9277,13.1205],[-86.928,13.1025],[-86.9189,13.1033],[-86.9158,13.0992],[-86.9181,13.0922],[-86.943,13.0686],[-86.954,13.0637],[-86.9544,13.0553],[-86.9588,13.0521],[-86.9554,13.0375],[-86.9637,13.0302],[-86.9724,13.0286],[-86.9773,13.0213],[-86.9887,13.0237],[-86.9982,13.0192],[-87.0071,13.0114],[-87.0095,13.0031],[-87.0198,12.9996],[-87.0166,13.0053],[-87.0229,13.0082],[-87.0276,13.0025],[-87.024,12.9914],[-87.0293,12.9859],[-87.049,12.9883],[-87.0505,12.981],[-87.0534,12.986],[-87.0496,12.9924],[-87.0601,12.9931],[-87.0647,13.0024],[-87.3085,12.9877],[-87.317,12.975],[-87.3275,12.968],[-87.3687,12.9521],[-87.3807,12.9454],[-87.3838,12.94],[-87.3687,12.926],[-87.3215,12.9253],[-87.3074,12.9281],[-87.3066,12.9229],[-87.3633,12.9121],[-87.386,12.9109],[-87.3882,12.9131],[-87.395,12.9097],[-87.3969,12.9128],[-87.4125,12.9144],[-87.4255,12.9197],[-87.428,12.9178],[-87.4611,12.9353],[-87.4671,12.9353],[-87.4656,12.9303],[-87.4616,12.9309],[-87.4654,12.93],[-87.4674,12.9317],[-87.4677,12.9358],[-87.4748,12.9375],[-87.4751,12.9451],[-87.4792,12.9431],[-87.4826,12.9465],[-87.4791,12.9439],[-87.4762,12.9459],[-87.4738,12.9448],[-87.4771,12.9601],[-87.4733,12.9677],[-87.4655,12.962],[-87.4871,12.9965],[-87.497,13.002],[-87.5164,13.0255],[-87.5375,13.0372],[-87.5503,13.0499],[-87.5887,13.0554],[-87.5817,13.0651],[-87.5784,13.0792],[-87.5825,13.0766],[-87.5799,13.0865],[-87.5753,13.0816],[-87.5767,13.0734],[-87.5746,13.0749],[-87.5743,13.0808],[-87.5765,13.0909],[-87.5826,13.0842],[-87.5976,13.0363],[-87.6181,13.0092],[-87.6369,12.9989],[-87.6514,12.9959],[-87.6554,12.9903],[-87.6606,12.9891],[-87.6636,12.9768],[-87.676,12.9649],[-87.6762,12.9555],[-87.6848,12.9418],[-87.6858,12.9279],[-87.6891,12.9235],[-87.6877,12.9184],[-87.6919,12.9117],[-87.634,12.8645],[-87.5255,12.7992],[-87.5023,12.7818],[-87.4905,12.768],[-87.476,12.7636],[-87.4746,12.7587],[-87.4491,12.7402],[-87.431,12.7173],[-87.4185,12.7106],[-87.3964,12.6911],[-87.3921,12.6749],[-87.3874,12.6733],[-87.3843,12.6658],[-87.3636,12.6421],[-87.3626,12.6345],[-87.3666,12.6323],[-87.3444,12.6163],[-87.3432,12.6142],[-87.3488,12.6085],[-87.3464,12.6047],[-87.3388,12.6079],[-87.3198,12.5989],[-87.3117,12.5984],[-87.3098,12.594],[-87.2541,12.5577],[-87.2461,12.5562],[-87.2124,12.5299],[-87.2083,12.5221],[-87.1896,12.5045],[-87.181,12.4911],[-87.1799,12.4796],[-87.1723,12.4774],[-87.1692,12.4683],[-87.17,12.4614],[-87.1743,12.4577],[-87.078,12.4018],[-87.0732,12.4059],[-87.077,12.408],[-87.0718,12.409],[-87.0767,12.4127],[-87.0841,12.4103],[-87.0931,12.4276],[-87.106,12.4341],[-87.1184,12.4524],[-87.1188,12.4615],[-87.1038,12.4665],[-87.0938,12.465],[-87.0853,12.4681],[-87.077,12.4654],[-87.0552,12.4714],[-87.038,12.4685],[-86.9937,12.4837],[-86.965,12.5103],[-86.9632,12.5037],[-86.9586,12.5038],[-86.9527,12.5116],[-86.9564,12.5169],[-86.9388,12.5246],[-86.9341,12.5504],[-86.9242,12.556],[-86.9208,12.61],[-86.9079,12.6144],[-86.8755,12.6486],[-86.873,12.6578],[-86.875,12.6651],[-86.8706,12.6792],[-86.8463,12.6901],[-86.8325,12.7025],[-86.8085,12.7072],[-86.8157,12.7176],[-86.8153,12.7323],[-86.8201,12.7434],[-86.8136,12.742],[-86.7935,12.7513],[-86.79,12.7465],[-86.7794,12.7458],[-86.7355,12.7752],[-86.7194,12.7623],[-86.6695,12.7951],[-86.6608,12.8342],[-86.6728,12.8932],[-86.6858,12.9175],[-86.6861,12.9487],[-86.675,12.9624],[-86.6821,12.9668],[-86.6825,12.9746],[-86.6917,12.9768],[-86.6962,12.9868],[-86.7118,13.0007],[-86.7118,13.0062],[-86.7068,13.0126],[-86.7158,13.0259],[-86.7303,13.0315],[-86.7315,13.0674],[-86.7362,13.0712],[-86.7391,13.0824],[-86.7467,13.088],[-86.7433,13.0903],[-86.7387,13.0885],[-86.7362,13.0974]]]}},{"type":"Feature","properties":{"id":"madriz","bbox":[-86.7699,13.1915,-86.0677,13.663]},"geometry":{"type":"Polygon","coordinates":[[[-86.718,13.1915],[-86.673,13.2005],[-86.6556,13.212],[-86.6271,13.2424],[-86.6201,13.2703],[-86.6205,13.3028],[-86.6077,13.3113],[-86.6094,13.3266],[-86.6018,13.3366],[-86.5821,13.3458],[-86.5699,13.3728],[-86.5694,13.3946],[-86.5558,13.4141],[-86.5634,13.4213],[-86.5565,13.4294],[-86.5433,13.4342],[-86.5371,13.4298],[-86.5184,13.4279],[-86.5144,13.4249],[-86.4956,13.4302],[-86.4812,13.4244],[-86.4775,13.4143],[-86.432,13.3927],[-86.421,13.4002],[-86.3877,13.3971],[-86.3688,13.4077],[-86.3465,13.4073],[-86.3276,13.4215],[-86.2959,13.4344],[-86.2703,13.4258],[-86.2484,13.4316],[-86.2346,13.4174],[-86.2311,13.407],[-86.219,13.4032],[-86.2081,13.3931],[-86.2048,13.3956],[-86.2093,13.3997],[-86.1982,13.4056],[-86.1913,13.4179],[-86.1844,13.4208],[-86.1894,13.4262],[-86.185,13.4339],[-86.1813,13.434],[-86.1799,13.4388],[-86.1716,13.4449],[-86.1662,13.4459],[-86.157,13.4405],[-86.1518,13.4418],[-86.1482,13.438],[-86.137,13.4424],[-86.1283,13.4393],[-86.1196,13.4405],[-86.1136,13.4474],[-86.1063,13.4475],[-86.1034,13.4534],[-86.0946,13.4547],[-86.0888,13.4647],[-86.0835,13.4635],[-86.0797,13.4714],[-86.0847,13.4756],[-86.0757,13.4795],[-86.0761,13.4883],[-86.0677,13.4988],[-86.0786,13.5135],[-86.0782,13.5236],[-86.0852,13.5268],[-86.0843,13.534],[-86.0955,13.5347],[-86.0956,13.5678],[-86.1363,13.5985],[-86.1493,13.6178],[-86.16,13.6065],[-86.169,13.6045],[-86.1718,13.595],[-86.1765,13.5906],[-86.1863,13.5869],[-86.19,13.5927],[-86.1895,13.5999],[-86.1984,13.6059],[-86.2082,13.6186],[-86.2425,13.622],[-86.2712,13.6168],[-86.3143,13.5871],[-86.3181,13.5966],[-86.3283,13.5951],[-86.3324,13.5915],[-86.3359,13.5948],[-86.339,13.5927],[-86.34,13.5973],[-86.3534,13.5977],[-86.3492,13.5781],[-86.3588,13.5777],[-86.3737,13.5632],[-86.3786,13.5718],[-86.3853,13.5687],[-86.3889,13.5732],[-86.3975,13.5704],[-86.4136,13.5831],[-86.431,13.5773],[-86.4418,13.5772],[-86.4519,13.5858],[-86.4781,13.5837],[-86.5099,13.596],[-86.5315,13.5938],[-86.5479,13.5805],[-86.5539,13.5791],[-86.5535,13.5755],[-86.558,13.5719],[-86.56,13.5757],[-86.5647,13.5736],[-86.588,13.5931],[-86.6076,13.5846],[-86.6078,13.5911],[-86.6347,13.6117],[-86.6385,13.6392],[-86.6738,13.6453],[-86.6793,13.6438],[-86.68,13.6469],[-86.6929,13.6512],[-86.6974,13.6573],[-86.7092,13.6628],[-86.7121,13.6623],[-86.7114,13.6596],[-86.7234,13.6576],[-86.7319,13.663],[-86.7466,13.6625],[-86.7551,13.6514],[-86.749,13.6393],[-86.7699,13.5769],[-86.7649,13.5712],[-86.7572,13.571],[-86.7494,13.5653],[-86.7422,13.5278],[-86.7412,13.4865],[-86.7234,13.4568],[-86.7254,13.4452],[-86.7209,13.4345],[-86.744,13.4064],[-86.7444,13.4019],[-86.7368,13.3814],[-86.7194,13.3807],[-86.7066,13.3651],[-86.7105,13.3592],[-86.7075,13.3238],[-86.7039,13.3167],[-86.7058,13.3028],[-86.7113,13.296],[-86.728,13.2894],[-86.7543,13.2675],[-86.7396,13.2497],[-86.739,13.243],[-86.7252,13.233],[-86.7132,13.2323],[-86.7083,13.2266],[-86.7156,13.2099],[-86.713,13.2037],[-86.7209,13.1971],[-86.718,13.1915]]]}},{"type":"Feature","properties":{"id":"esteli","bbox":[-86.7473,12.8596,-86.0987,13.4344]},"geometry":{"type":"Polygon","coordinates":[[[-86.3012,12.8596],[-86.284,12.8701],[-86.2753,12.9148],[-86.2629,12.9153],[-86.2598,12.9126],[-86.2525,12.9161],[-86.2518,12.9212],[-86.2427,12.9242],[-86.2168,12.9253],[-86.2036,12.9363],[-86.2074,12.9551],[-86.1759,12.9786],[-86.1354,12.9993],[-86.1383,13.0062],[-86.1348,13.0111],[-86.1464,13.0154],[-86.1406,13.0168],[-86.1367,13.014],[-86.1362,13.0203],[-86.1337,13.0226],[-86.1312,13.0206],[-86.1308,13.0269],[-86.1234,13.0395],[-86.1175,13.0364],[-86.1141,13.0427],[-86.0987,13.0432],[-86.1068,13.0531],[-86.1169,13.1038],[-86.1647,13.1091],[-86.1948,13.1439],[-86.2015,13.1625],[-86.2147,13.1722],[-86.2615,13.1865],[-86.2353,13.2531],[-86.2443,13.2898],[-86.2575,13.3156],[-86.2433,13.325],[-86.2406,13.3344],[-86.2355,13.3397],[-86.2369,13.3441],[-86.2315,13.3464],[-86.2309,13.3512],[-86.2365,13.3596],[-86.2291,13.3617],[-86.2345,13.367],[-86.2331,13.3704],[-86.2123,13.385],[-86.2081,13.3931],[-86.219,13.4032],[-86.2311,13.407],[-86.2346,13.4174],[-86.2484,13.4316],[-86.2703,13.4258],[-86.2959,13.4344],[-86.3276,13.4215],[-86.3465,13.4073],[-86.3688,13.4077],[-86.3877,13.3971],[-86.421,13.4002],[-86.432,13.3927],[-86.4775,13.4143],[-86.4812,13.4244],[-86.4956,13.4302],[-86.5144,13.4249],[-86.5184,13.4279],[-86.5371,13.4298],[-86.5433,13.4342],[-86.5565,13.4294],[-86.5634,13.4213],[-86.5558,13.4141],[-86.5694,13.3946],[-86.5699,13.3728],[-86.5821,13.3458],[-86.6018,13.3366],[-86.6094,13.3266],[-86.6077,13.3113],[-86.6205,13.3028],[-86.6201,13.2703],[-86.6271,13.2424],[-86.6556,13.212],[-86.673,13.2005],[-86.7196,13.1902],[-86.7285,13.193],[-86.7394,13.1717],[-86.7438,13.1697],[-86.7465,13.1624],[-86.7437,13.1569],[-86.7462,13.1551],[-86.744,13.1501],[-86.7473,13.1472],[-86.7463,13.1342],[-86.7398,13.1227],[-86.7362,13.0974],[-86.732,13.1021],[-86.7163,13.0974],[-86.7058,13.1062],[-86.7084,13.1124],[-86.7045,13.1147],[-86.6373,13.11],[-86.6374,13.1281],[-86.615,13.1279],[-86.5943,13.1163],[-86.5681,13.1245],[-86.5361,13.1253],[-86.4921,13.1142],[-86.488,13.0988],[-86.4691,13.0679],[-86.4723,13.0666],[-86.4684,13.0537],[-86.4727,13.0462],[-86.4686,13.0419],[-86.4719,13.0394],[-86.4581,13.0139],[-86.4508,13.018],[-86.4188,12.9919],[-86.4181,12.9733],[-86.4233,12.973],[-86.4251,12.9681],[-86.4216,12.9572],[-86.4315,12.9464],[-86.4275,12.9265],[-86.4379,12.9201],[-86.4338,12.8981],[-86.4225,12.8931],[-86.3912,12.8894],[-86.3802,12.8682],[-86.3649,12.8722],[-86.3575,12.8809],[-86.3419,12.8739],[-86.3096,12.868],[-86.3012,12.8596]]]}},{"type":"Feature","properties":{"id":"nueva-segovia","bbox":[-86.7861,13.4642,-85.7522,14.0803]},"geometry":{"type":"Polygon","coordinates":[[[-86.0688,13.4978],[-86.0628,13.5001],[-86.0552,13.4982],[-86.0505,13.5049],[-86.0473,13.5005],[-86.0251,13.4963],[-86.0204,13.5171],[-86.0094,13.5189],[-85.998,13.5155],[-85.9926,13.5177],[-85.983,13.5127],[-85.9767,13.514],[-85.9686,13.5028],[-85.9463,13.4934],[-85.9338,13.4725],[-85.9203,13.4743],[-85.9144,13.4662],[-85.9081,13.4642],[-85.905,13.4659],[-85.9097,13.4756],[-85.9061,13.4901],[-85.9008,13.493],[-85.8958,13.4918],[-85.8928,13.4965],[-85.8859,13.4988],[-85.8826,13.5107],[-85.864,13.5094],[-85.8571,13.5061],[-85.8496,13.5203],[-85.8379,13.5222],[-85.8368,13.5155],[-85.8289,13.5149],[-85.8251,13.5248],[-85.8296,13.5361],[-85.8162,13.5412],[-85.8118,13.5461],[-85.8181,13.5588],[-85.8258,13.5544],[-85.8304,13.561],[-85.8251,13.5668],[-85.8252,13.5763],[-85.8177,13.5813],[-85.8296,13.5902],[-85.8269,13.5941],[-85.8311,13.6015],[-85.8285,13.6194],[-85.8197,13.6242],[-85.82,13.6349],[-85.8108,13.6414],[-85.8186,13.6467],[-85.8154,13.6538],[-85.8101,13.6563],[-85.8133,13.6811],[-85.8001,13.6857],[-85.8041,13.6924],[-85.7965,13.6958],[-85.7971,13.7115],[-85.7898,13.7108],[-85.7891,13.7211],[-85.7831,13.7273],[-85.7908,13.7322],[-85.7916,13.7438],[-85.7778,13.7601],[-85.7924,13.7771],[-85.7952,13.7867],[-85.7864,13.7866],[-85.7881,13.7956],[-85.7817,13.7964],[-85.7694,13.8126],[-85.7619,13.8127],[-85.7567,13.8287],[-85.7522,13.8322],[-85.7547,13.8339],[-85.7552,13.8466],[-85.759,13.8431],[-85.7662,13.8492],[-85.7745,13.8492],[-85.7854,13.8422],[-85.7906,13.8446],[-85.7937,13.8419],[-85.8039,13.8433],[-85.8133,13.8497],[-85.8197,13.8492],[-85.821,13.859],[-85.8268,13.8574],[-85.8264,13.87],[-85.8373,13.8777],[-85.8388,13.8847],[-85.8419,13.8844],[-85.8369,13.8878],[-85.8412,13.8895],[-85.8376,13.8931],[-85.8416,13.8958],[-85.837,13.8991],[-85.8401,13.9027],[-85.836,13.9048],[-85.8421,13.9066],[-85.8433,13.9108],[-85.8385,13.9112],[-85.8454,13.9176],[-85.8533,13.9214],[-85.869,13.922],[-85.882,13.9296],[-85.8844,13.9254],[-85.8887,13.9253],[-85.8872,13.9217],[-85.8924,13.9161],[-85.8887,13.9134],[-85.8937,13.9068],[-85.8923,13.9044],[-85.8964,13.9056],[-85.898,13.9031],[-85.9137,13.9085],[-85.9162,13.9165],[-85.9127,13.926],[-85.9185,13.9376],[-85.9216,13.9315],[-85.9346,13.9375],[-85.9357,13.9413],[-85.9477,13.9444],[-85.9541,13.9509],[-85.9644,13.9509],[-85.9682,13.9566],[-85.9666,13.9602],[-85.9769,13.9621],[-85.9835,13.9693],[-85.9879,13.9696],[-85.9884,13.9654],[-85.9952,13.9638],[-85.9951,13.9696],[-86.0006,13.9716],[-86.0023,13.9782],[-86.0105,13.9864],[-86.0157,13.9864],[-86.017,13.992],[-86.0224,13.9915],[-86.0244,13.9977],[-86.03,13.9983],[-86.0337,13.9941],[-86.0417,13.9959],[-86.0086,14.0555],[-86.0112,14.0609],[-86.0035,14.0702],[-86.0114,14.0803],[-86.0392,14.0773],[-86.0431,14.0695],[-86.0761,14.07],[-86.0771,14.0638],[-86.086,14.0654],[-86.1074,14.0585],[-86.1185,14.0448],[-86.1256,14.0448],[-86.1349,14.0501],[-86.1337,14.0437],[-86.153,14.035],[-86.1572,14.0243],[-86.1541,14.0173],[-86.1442,14.0139],[-86.1444,14.0083],[-86.1403,14.0067],[-86.1407,13.9995],[-86.149,14.0004],[-86.1638,13.9828],[-86.171,13.9797],[-86.1868,13.9863],[-86.1907,13.984],[-86.1925,13.9802],[-86.1878,13.9744],[-86.186,13.9554],[-86.1958,13.955],[-86.1981,13.9472],[-86.1955,13.9424],[-86.2008,13.9367],[-86.212,13.9389],[-86.2177,13.9368],[-86.2265,13.9241],[-86.2219,13.915],[-86.2254,13.9081],[-86.2432,13.9043],[-86.2453,13.8952],[-86.2498,13.8919],[-86.2492,13.8866],[-86.2571,13.8872],[-86.2569,13.8805],[-86.2662,13.8812],[-86.2691,13.8777],[-86.2783,13.876],[-86.2763,13.8686],[-86.2815,13.8564],[-86.2905,13.8523],[-86.2988,13.8533],[-86.2971,13.8467],[-86.3029,13.8387],[-86.2947,13.8258],[-86.2962,13.8161],[-86.3035,13.815],[-86.3049,13.8066],[-86.3165,13.803],[-86.316,13.7927],[-86.3323,13.7691],[-86.3462,13.7686],[-86.3506,13.763],[-86.3557,13.766],[-86.3671,13.7633],[-86.3784,13.7713],[-86.3867,13.762],[-86.3986,13.763],[-86.4025,13.7588],[-86.417,13.7591],[-86.4251,13.7655],[-86.4367,13.763],[-86.4436,13.7673],[-86.4537,13.7898],[-86.4742,13.7714],[-86.478,13.7712],[-86.4816,13.7772],[-86.4837,13.7717],[-86.4908,13.7695],[-86.495,13.7738],[-86.5136,13.7754],[-86.5216,13.7802],[-86.5229,13.789],[-86.5384,13.8053],[-86.5509,13.7973],[-86.5561,13.8024],[-86.5606,13.8019],[-86.5851,13.7844],[-86.5951,13.7889],[-86.6006,13.7853],[-86.605,13.7862],[-86.6092,13.7818],[-86.6186,13.7875],[-86.6237,13.7857],[-86.628,13.7881],[-86.6446,13.7765],[-86.6492,13.7799],[-86.6587,13.775],[-86.6639,13.7768],[-86.6661,13.7843],[-86.7232,13.7872],[-86.7628,13.769],[-86.7715,13.753],[-86.7653,13.7451],[-86.7654,13.7356],[-86.7606,13.7241],[-86.7637,13.7236],[-86.7638,13.7171],[-86.7701,13.7057],[-86.7689,13.7008],[-86.7861,13.6622],[-86.768,13.6512],[-86.7551,13.6514],[-86.7466,13.6625],[-86.7319,13.663],[-86.7234,13.6576],[-86.7114,13.6596],[-86.7121,13.6623],[-86.7092,13.6628],[-86.6974,13.6573],[-86.6929,13.6512],[-86.68,13.6469],[-86.6793,13.6438],[-86.6738,13.6453],[-86.6385,13.6392],[-86.6347,13.6117],[-86.6078,13.5911],[-86.6076,13.5846],[-86.588,13.5931],[-86.5647,13.5736],[-86.56,13.5757],[-86.558,13.5719],[-86.5535,13.5755],[-86.5539,13.5791],[-86.5479,13.5805],[-86.5315,13.5938],[-86.5099,13.596],[-86.4781,13.5837],[-86.4519,13.5858],[-86.4418,13.5772],[-86.431,13.5773],[-86.4136,13.5831],[-86.3975,13.5704],[-86.3889,13.5732],[-86.3853,13.5687],[-86.3786,13.5718],[-86.3737,13.5632],[-86.3588,13.5777],[-86.3492,13.5781],[-86.3534,13.5977],[-86.34,13.5973],[-86.339,13.5927],[-86.3359,13.5948],[-86.3324,13.5915],[-86.3283,13.5951],[-86.3181,13.5966],[-86.3143,13.5871],[-86.2712,13.6168],[-86.2425,13.622],[-86.2082,13.6186],[-86.1984,13.6059],[-86.1895,13.5999],[-86.19,13.5927],[-86.1863,13.5869],[-86.1765,13.5906],[-86.1718,13.595],[-86.169,13.6045],[-86.16,13.6065],[-86.1493,13.6178],[-86.1363,13.5985],[-86.0956,13.5678],[-86.0955,13.5347],[-86.0843,13.534],[-86.0852,13.5268],[-86.0782,13.5236],[-86.0786,13.5135],[-86.0703,13.5053],[-86.0688,13.4978]]]}},{"type":"Feature","properties":{"id":"matagalpa","bbox":[-86.3012,12.5344,-85.0717,13.3459]},"geometry":{"type":"Polygon","coordinates":[[[-85.1212,12.785],[-85.1375,12.7915],[-85.1479,12.8075],[-85.1607,12.8133],[-85.1639,12.8135],[-85.1642,12.8096],[-85.1796,12.8057],[-85.1872,12.8144],[-85.1883,12.8304],[-85.1986,12.8449],[-85.1983,12.8519],[-85.1957,12.8615],[-85.1925,12.8611],[-85.1855,12.8765],[-85.19,12.8824],[-85.183,12.9023],[-85.1866,12.9122],[-85.1905,12.9143],[-85.189,12.9192],[-85.192,12.9239],[-85.1888,12.9426],[-85.186,12.9468],[-85.178,12.9481],[-85.191,12.9644],[-85.1974,12.9798],[-85.1908,12.983],[-85.1789,13.007],[-85.1678,13.0007],[-85.161,12.9786],[-85.1576,12.9755],[-85.1547,12.9795],[-85.1515,12.9791],[-85.1522,12.9846],[-85.1475,12.9881],[-85.1469,12.9976],[-85.1423,13.0046],[-85.1454,13.0095],[-85.1415,13.0184],[-85.1377,13.018],[-85.1307,13.0242],[-85.131,13.0339],[-85.1259,13.0377],[-85.1219,13.0368],[-85.122,13.0404],[-85.1153,13.0412],[-85.1154,13.0458],[-85.1062,13.0466],[-85.1066,13.0559],[-85.0913,13.0673],[-85.0893,13.0705],[-85.1067,13.0896],[-85.1119,13.1036],[-85.1057,13.1273],[-85.0958,13.1217],[-85.0854,13.1227],[-85.0824,13.1261],[-85.0847,13.1436],[-85.0893,13.1516],[-85.0854,13.1535],[-85.0849,13.1591],[-85.0779,13.1564],[-85.0717,13.1582],[-85.073,13.1731],[-85.1092,13.1839],[-85.1246,13.1744],[-85.1327,13.1781],[-85.1385,13.1575],[-85.1497,13.1717],[-85.1715,13.1699],[-85.177,13.1652],[-85.1736,13.1617],[-85.1734,13.1517],[-85.1791,13.1417],[-85.1897,13.1508],[-85.2001,13.1683],[-85.2161,13.1552],[-85.2266,13.1512],[-85.2352,13.1535],[-85.2486,13.1415],[-85.2546,13.1425],[-85.2618,13.1508],[-85.2697,13.1458],[-85.2739,13.1493],[-85.2718,13.1597],[-85.2819,13.1575],[-85.2867,13.1649],[-85.2942,13.1639],[-85.2962,13.1686],[-85.2904,13.1758],[-85.298,13.1805],[-85.3052,13.1743],[-85.3118,13.1753],[-85.3107,13.1826],[-85.3177,13.1851],[-85.32,13.1928],[-85.3301,13.195],[-85.3352,13.2074],[-85.345,13.2086],[-85.3507,13.2021],[-85.356,13.2034],[-85.3676,13.1976],[-85.3783,13.204],[-85.3862,13.2167],[-85.3997,13.2285],[-85.3986,13.2327],[-85.4033,13.2351],[-85.4069,13.2461],[-85.412,13.2463],[-85.4135,13.2517],[-85.4183,13.2515],[-85.4277,13.2586],[-85.4382,13.2601],[-85.4399,13.2709],[-85.448,13.2847],[-85.472,13.3053],[-85.4835,13.3272],[-85.4946,13.3308],[-85.4974,13.3395],[-85.5006,13.3395],[-85.4999,13.3426],[-85.5051,13.3459],[-85.545,13.3273],[-85.553,13.3198],[-85.5592,13.3195],[-85.5897,13.3329],[-85.6045,13.3245],[-85.6244,13.3394],[-85.6256,13.333],[-85.6302,13.3323],[-85.6356,13.3246],[-85.6454,13.2996],[-85.6502,13.2981],[-85.6553,13.2903],[-85.6499,13.2776],[-85.6404,13.2693],[-85.6759,13.2487],[-85.6868,13.2464],[-85.6988,13.2563],[-85.7043,13.2533],[-85.7166,13.2555],[-85.7335,13.2387],[-85.74,13.2167],[-85.7374,13.2111],[-85.8102,13.1327],[-85.8361,13.1003],[-85.8562,13.0837],[-85.8692,13.0854],[-85.881,13.0732],[-85.8906,13.0721],[-85.8929,13.0745],[-85.9063,13.0703],[-85.9061,13.054],[-85.9004,13.0309],[-85.9069,13.0324],[-85.9187,13.0244],[-85.9213,13.0189],[-85.9211,12.9988],[-85.9445,12.9896],[-85.962,13.0198],[-85.9685,13.0247],[-85.9752,13.0231],[-85.9857,13.0143],[-85.9867,13.0085],[-85.9824,12.997],[-85.9927,13.0009],[-86.0165,12.9947],[-86.0207,13.0067],[-86.032,13.0167],[-86.0542,13.0162],[-86.0616,13.0256],[-86.0682,13.0287],[-86.0728,13.0416],[-86.0799,13.0381],[-86.0858,13.0399],[-86.0882,13.0459],[-86.0929,13.039],[-86.0971,13.0439],[-86.1011,13.0411],[-86.1141,13.0427],[-86.1175,13.0364],[-86.1234,13.0395],[-86.1308,13.0269],[-86.1312,13.0206],[-86.1337,13.0226],[-86.1362,13.0203],[-86.1367,13.014],[-86.1406,13.0168],[-86.1464,13.0154],[-86.1348,13.0111],[-86.1383,13.0062],[-86.1354,12.9993],[-86.1759,12.9786],[-86.2074,12.9551],[-86.2036,12.9363],[-86.2168,12.9253],[-86.2427,12.9242],[-86.2518,12.9212],[-86.2525,12.9161],[-86.2598,12.9126],[-86.2629,12.9153],[-86.2753,12.9148],[-86.284,12.8701],[-86.3012,12.8596],[-86.2883,12.8479],[-86.2847,12.7583],[-86.2755,12.7503],[-86.2764,12.7335],[-86.2824,12.7276],[-86.2786,12.7219],[-86.2816,12.7187],[-86.2798,12.714],[-86.2834,12.7049],[-86.2793,12.6996],[-86.2817,12.6953],[-86.2732,12.6855],[-86.2835,12.6747],[-86.2802,12.669],[-86.2871,12.6591],[-86.284,12.6433],[-86.279,12.6374],[-86.2562,12.6387],[-86.2349,12.6251],[-86.221,12.6312],[-86.1968,12.6276],[-86.1582,12.5995],[-86.1589,12.5896],[-86.1456,12.5933],[-86.1379,12.5888],[-86.1087,12.5882],[-86.0496,12.5675],[-86.0519,12.5567],[-86.0497,12.5479],[-85.9984,12.542],[-85.9949,12.5476],[-85.9901,12.5424],[-85.9826,12.5418],[-85.9783,12.5344],[-85.9716,12.5389],[-85.9671,12.5501],[-85.9435,12.5552],[-85.9366,12.5716],[-85.9223,12.5694],[-85.9101,12.5838],[-85.9064,12.5822],[-85.9,12.5864],[-85.8877,12.6052],[-85.8863,12.6202],[-85.8919,12.6214],[-85.8941,12.626],[-85.889,12.6275],[-85.8891,12.633],[-85.885,12.6351],[-85.8717,12.6373],[-85.8612,12.633],[-85.8362,12.6472],[-85.8083,12.6487],[-85.768,12.6381],[-85.7257,12.6601],[-85.6851,12.6604],[-85.6801,12.6541],[-85.667,12.6583],[-85.6608,12.656],[-85.6594,12.6508],[-85.6542,12.656],[-85.6473,12.6524],[-85.6473,12.6549],[-85.6416,12.6547],[-85.6408,12.6575],[-85.6438,12.6575],[-85.6379,12.6629],[-85.6321,12.6609],[-85.6299,12.6662],[-85.6279,12.662],[-85.6158,12.6693],[-85.6049,12.6654],[-85.5987,12.6734],[-85.5929,12.671],[-85.5877,12.6761],[-85.5849,12.6718],[-85.5763,12.673],[-85.5683,12.679],[-85.5693,12.6833],[-85.5646,12.6815],[-85.5668,12.6865],[-85.5696,12.6845],[-85.5686,12.6891],[-85.5619,12.6886],[-85.5569,12.6923],[-85.5533,12.7029],[-85.5442,12.7126],[-85.5336,12.7101],[-85.532,12.7057],[-85.5239,12.706],[-85.5203,12.7018],[-85.5161,12.7077],[-85.5103,12.7095],[-85.5078,12.7165],[-85.5013,12.7094],[-85.4944,12.7151],[-85.4905,12.7104],[-85.4778,12.714],[-85.4734,12.7002],[-85.4705,12.7026],[-85.4578,12.699],[-85.4561,12.7011],[-85.4605,12.7046],[-85.4573,12.7136],[-85.451,12.7189],[-85.4329,12.7205],[-85.4086,12.743],[-85.4066,12.7388],[-85.3923,12.7336],[-85.3787,12.7227],[-85.3687,12.6954],[-85.3655,12.6959],[-85.3594,12.7119],[-85.3511,12.7056],[-85.3386,12.7039],[-85.3353,12.7083],[-85.3295,12.7064],[-85.3305,12.6986],[-85.3243,12.6937],[-85.3186,12.6824],[-85.2937,12.6901],[-85.2869,12.6766],[-85.2988,12.6571],[-85.2912,12.6564],[-85.2796,12.6652],[-85.2708,12.6596],[-85.2611,12.6701],[-85.2591,12.6587],[-85.2537,12.6506],[-85.2398,12.6412],[-85.2419,12.627],[-85.2357,12.6253],[-85.231,12.6191],[-85.2147,12.6363],[-85.1953,12.6338],[-85.1945,12.6253],[-85.191,12.6229],[-85.1818,12.6341],[-85.189,12.6504],[-85.1828,12.6579],[-85.1764,12.6598],[-85.1653,12.6499],[-85.1567,12.6521],[-85.1582,12.6568],[-85.1541,12.662],[-85.1572,12.6718],[-85.1553,12.6767],[-85.161,12.6831],[-85.166,12.7001],[-85.1504,12.7043],[-85.1528,12.7144],[-85.1469,12.7216],[-85.1334,12.7244],[-85.1272,12.7353],[-85.1256,12.739],[-85.1327,12.741],[-85.1395,12.7519],[-85.1306,12.7525],[-85.1335,12.7667],[-85.1252,12.7691],[-85.1251,12.7794],[-85.1212,12.785]]]}},{"type":"Feature","properties":{"id":"raccn","bbox":[-85.5102,13.021,-82.7343,15.0297]},"geometry":{"type":"MultiPolygon","coordinates":[[[[-85.0819,13.1305],[-85.0555,13.113],[-85.0452,13.0977],[-85.0412,13.0991],[-85.0392,13.1076],[-85.0341,13.1045],[-85.0357,13.1003],[-85.0301,13.1034],[-85.0188,13.1031],[-85.0157,13.0995],[-85.0125,13.1051],[-85.0129,13.1021],[-85.0063,13.0981],[-85.0012,13.1076],[-84.9914,13.0991],[-84.9699,13.0919],[-84.9682,13.0878],[-84.9653,13.0937],[-84.9663,13.0999],[-84.9494,13.0919],[-84.9462,13.1042],[-84.942,13.0966],[-84.9297,13.0991],[-84.9267,13.1015],[-84.9273,13.1089],[-84.9325,13.1105],[-84.932,13.1143],[-84.9234,13.1227],[-84.9182,13.1223],[-84.908,13.1289],[-84.9067,13.126],[-84.8948,13.1246],[-84.8934,13.1208],[-84.8855,13.1208],[-84.8861,13.1296],[-84.8579,13.1256],[-84.8517,13.1277],[-84.8538,13.1327],[-84.8486,13.1428],[-84.8419,13.141],[-84.8351,13.1526],[-84.8282,13.1551],[-84.8232,13.1488],[-84.8169,13.1508],[-84.8116,13.1468],[-84.8023,13.1503],[-84.7619,13.2265],[-84.536,13.2556],[-84.3317,13.2578],[-84.2994,13.2857],[-84.2837,13.2794],[-84.2756,13.2825],[-84.2692,13.281],[-84.2637,13.2857],[-84.2581,13.2796],[-84.258,13.2745],[-84.2499,13.2688],[-84.2398,13.2694],[-84.2219,13.2759],[-84.2164,13.2845],[-84.2134,13.2834],[-84.2096,13.2883],[-84.2018,13.2911],[-84.1899,13.287],[-84.1826,13.2926],[-84.1614,13.2921],[-84.1546,13.2976],[-84.1515,13.2964],[-84.1522,13.3084],[-84.1474,13.3111],[-84.1348,13.3062],[-84.1332,13.2986],[-84.1299,13.2967],[-84.1293,13.2995],[-83.8941,13.2598],[-83.8776,13.2587],[-83.8612,13.2656],[-83.8507,13.2542],[-83.835,13.2444],[-83.8246,13.2454],[-83.8186,13.2407],[-83.8091,13.2442],[-83.8044,13.2429],[-83.797,13.248],[-83.7829,13.2494],[-83.7801,13.2424],[-83.7846,13.2307],[-83.7891,13.2319],[-83.7904,13.2265],[-83.7981,13.2259],[-83.7989,13.2232],[-83.7959,13.2209],[-83.7969,13.2105],[-83.7932,13.2052],[-83.7763,13.1956],[-83.775,13.191],[-83.775,13.1822],[-83.785,13.1498],[-83.7809,13.1289],[-83.7495,13.1324],[-83.731,13.1207],[-83.7311,13.1129],[-83.7176,13.1174],[-83.7091,13.1098],[-83.6959,13.1109],[-83.6771,13.1014],[-83.6769,13.0989],[-83.6561,13.0919],[-83.645,13.0933],[-83.6601,13.0778],[-83.6414,13.0679],[-83.6398,13.0497],[-83.6345,13.0459],[-83.6258,13.0472],[-83.611,13.035],[-83.5974,13.033],[-83.5822,13.021],[-83.5803,13.0243],[-83.5585,13.0304],[-83.5448,13.0233],[-83.5399,13.0264],[-83.5665,13.1985],[-83.5715,13.3288],[-83.5529,13.4696],[-83.5485,13.4707],[-83.5376,13.516],[-83.5244,13.5412],[-83.5327,13.5585],[-83.5259,13.5628],[-83.5242,13.6036],[-83.5123,13.6862],[-83.4911,13.7916],[-83.4761,13.8381],[-83.4555,13.8703],[-83.4554,13.8787],[-83.4647,13.8816],[-83.4419,13.943],[-83.4237,13.9815],[-83.4022,14.0128],[-83.3917,14.0205],[-83.3849,14.0199],[-83.3733,14.0345],[-83.3648,14.0383],[-83.3542,14.0492],[-83.331,14.0901],[-83.3006,14.1238],[-83.2896,14.1402],[-83.2848,14.1514],[-83.2923,14.1498],[-83.2958,14.1456],[-83.2946,14.1349],[-83.2969,14.1321],[-83.2974,14.1463],[-83.2779,14.1622],[-83.2582,14.1956],[-83.2072,14.3006],[-83.1994,14.3282],[-83.2021,14.3634],[-83.2168,14.4154],[-83.216,14.4446],[-83.2203,14.4496],[-83.2753,14.6059],[-83.2989,14.7143],[-83.2999,14.7662],[-83.3013,14.7691],[-83.3041,14.7676],[-83.3049,14.7615],[-83.3126,14.7735],[-83.2994,14.7815],[-83.2966,14.8192],[-83.2836,14.8422],[-83.2625,14.9006],[-83.2502,14.9214],[-83.2183,14.9511],[-83.1884,14.9615],[-83.1516,14.9885],[-83.1301,14.9885],[-83.1314,14.9926],[-83.1332,14.9901],[-83.1326,14.9942],[-83.145,14.9981],[-83.1746,14.9906],[-83.1986,14.999],[-83.2353,14.9823],[-83.2525,14.9899],[-83.2777,14.9877],[-83.2792,14.9928],[-83.2733,15.0013],[-83.2764,15.006],[-83.2988,14.9991],[-83.3428,15.0103],[-83.3476,15.0083],[-83.3476,14.9951],[-83.3577,15.0022],[-83.36,15.0143],[-83.3816,15.0153],[-83.4022,15.0297],[-83.4068,15.0234],[-83.4004,15.0162],[-83.4057,15.0095],[-83.406,14.9993],[-83.4135,15.0037],[-83.4202,14.9962],[-83.4204,14.9903],[-83.4302,14.9952],[-83.4373,14.9951],[-83.4425,14.9933],[-83.4476,14.9854],[-83.4611,14.9808],[-83.4722,14.9902],[-83.4801,14.9908],[-83.4763,15.0039],[-83.5013,15.0108],[-83.5141,15.0003],[-83.5152,14.9909],[-83.5246,14.9949],[-83.5282,14.9935],[-83.5289,14.9869],[-83.523,14.9792],[-83.5252,14.9739],[-83.5304,14.9749],[-83.535,14.9807],[-83.5399,14.9802],[-83.5384,14.9617],[-83.5321,14.9574],[-83.529,14.9501],[-83.5377,14.9489],[-83.5486,14.9572],[-83.5471,14.9474],[-83.5387,14.9455],[-83.538,14.9422],[-83.5443,14.9377],[-83.5569,14.941],[-83.5599,14.9391],[-83.56,14.9124],[-83.5712,14.9189],[-83.5802,14.9113],[-83.5967,14.9205],[-83.6006,14.9165],[-83.5934,14.9099],[-83.5931,14.9041],[-83.6008,14.9003],[-83.6146,14.8999],[-83.6085,14.8937],[-83.6144,14.8862],[-83.6157,14.8745],[-83.6442,14.8824],[-83.6501,14.8789],[-83.659,14.8801],[-83.6691,14.8772],[-83.6786,14.8667],[-83.6825,14.8665],[-83.6875,14.8783],[-83.6923,14.8809],[-83.6954,14.8774],[-83.6939,14.8657],[-83.698,14.8597],[-83.7073,14.8562],[-83.7169,14.8585],[-83.7216,14.8555],[-83.7196,14.8482],[-83.7105,14.8533],[-83.7003,14.8513],[-83.6972,14.8289],[-83.7016,14.8242],[-83.7047,14.8256],[-83.7108,14.8429],[-83.7145,14.8421],[-83.716,14.8329],[-83.7215,14.8297],[-83.7268,14.8411],[-83.7321,14.8412],[-83.7337,14.8367],[-83.7287,14.8254],[-83.732,14.8192],[-83.7377,14.82],[-83.742,14.8272],[-83.7532,14.8316],[-83.754,14.8098],[-83.7637,14.8062],[-83.7758,14.8098],[-83.7788,14.8214],[-83.7834,14.8236],[-83.7822,14.8135],[-83.786,14.8059],[-83.8022,14.7995],[-83.8141,14.7901],[-83.8218,14.7949],[-83.8296,14.7944],[-83.8438,14.773],[-83.8582,14.7745],[-83.8697,14.7691],[-83.8774,14.7713],[-83.8896,14.7651],[-83.902,14.7772],[-83.9151,14.7693],[-83.9286,14.7784],[-83.9364,14.7773],[-83.9395,14.7727],[-83.937,14.766],[-83.9249,14.7611],[-83.9194,14.7548],[-83.9183,14.7512],[-83.9236,14.7477],[-83.9297,14.7488],[-83.9325,14.7554],[-83.9459,14.7581],[-83.9791,14.7469],[-83.9892,14.7492],[-83.9972,14.7609],[-84.0025,14.7598],[-84.0145,14.7459],[-84.0333,14.7466],[-84.0449,14.7515],[-84.0394,14.7655],[-84.0409,14.7725],[-84.0459,14.7747],[-84.0566,14.7648],[-84.0804,14.7573],[-84.0842,14.7634],[-84.0798,14.7801],[-84.0819,14.7866],[-84.1098,14.7908],[-84.1157,14.786],[-84.1161,14.773],[-84.0958,14.7301],[-84.1254,14.7339],[-84.1484,14.7191],[-84.1668,14.7145],[-84.1885,14.7158],[-84.1991,14.7211],[-84.2124,14.7344],[-84.2222,14.7314],[-84.228,14.7337],[-84.2296,14.7393],[-84.2228,14.749],[-84.2228,14.7549],[-84.2271,14.76],[-84.2354,14.7606],[-84.2628,14.7442],[-84.2719,14.7344],[-84.2733,14.7237],[-84.263,14.6987],[-84.2665,14.6867],[-84.2579,14.6784],[-84.2586,14.6749],[-84.2769,14.6622],[-84.2969,14.6629],[-84.3098,14.6845],[-84.3184,14.6833],[-84.3209,14.6783],[-84.3296,14.6751],[-84.3494,14.6798],[-84.3533,14.6897],[-84.3439,14.7019],[-84.3634,14.7166],[-84.3666,14.7146],[-84.3664,14.7051],[-84.3773,14.6974],[-84.3818,14.6827],[-84.4028,14.663],[-84.4149,14.6558],[-84.412,14.6449],[-84.4146,14.6416],[-84.4248,14.6422],[-84.434,14.6322],[-84.4628,14.6321],[-84.4686,14.6158],[-84.4962,14.6197],[-84.5032,14.6246],[-84.5064,14.6358],[-84.525,14.6345],[-84.5265,14.6292],[-84.53,14.6302],[-84.5362,14.6373],[-84.5384,14.6457],[-84.5241,14.6476],[-84.5224,14.6525],[-84.5248,14.6564],[-84.5435,14.6547],[-84.5522,14.657],[-84.5606,14.6499],[-84.5655,14.6583],[-84.578,14.6519],[-84.5831,14.6553],[-84.5853,14.6653],[-84.5973,14.658],[-84.612,14.6655],[-84.627,14.6636],[-84.6293,14.6747],[-84.6325,14.677],[-84.6463,14.672],[-84.6654,14.6726],[-84.6705,14.6778],[-84.6667,14.6886],[-84.6718,14.6939],[-84.6786,14.6921],[-84.6929,14.6675],[-84.6975,14.6636],[-84.7015,14.6644],[-84.7059,14.6821],[-84.7036,14.6921],[-84.7162,14.6929],[-84.7273,14.6999],[-84.7293,14.7092],[-84.7401,14.7113],[-84.7448,14.7154],[-84.7488,14.731],[-84.7422,14.7392],[-84.743,14.7485],[-84.7482,14.7482],[-84.7567,14.7402],[-84.7715,14.749],[-84.7716,14.7575],[-84.768,14.7604],[-84.7585,14.7525],[-84.7521,14.7531],[-84.7495,14.7571],[-84.7521,14.7734],[-84.784,14.7914],[-84.7904,14.8111],[-84.788,14.8145],[-84.7954,14.8166],[-84.7997,14.8218],[-84.8069,14.8212],[-84.8154,14.8288],[-84.8455,14.8237],[-84.8525,14.8129],[-84.8574,14.8119],[-84.8681,14.8118],[-84.8777,14.8162],[-84.8883,14.8122],[-84.9004,14.8143],[-84.9299,14.7727],[-84.9312,14.7682],[-84.9231,14.7663],[-84.9271,14.7588],[-84.94,14.7584],[-84.9426,14.7538],[-84.9604,14.7563],[-84.9702,14.748],[-84.9728,14.7413],[-84.9868,14.7401],[-84.9953,14.7267],[-85.009,14.7141],[-85.0153,14.7133],[-85.0284,14.703],[-85.0273,14.696],[-85.0218,14.6932],[-85.0205,14.6871],[-85.0285,14.6725],[-85.0461,14.6708],[-85.0504,14.6621],[-85.0507,14.6531],[-85.0327,14.6476],[-85.0239,14.6331],[-85.0263,14.626],[-85.0431,14.6105],[-85.037,14.608],[-85.0188,14.6135],[-85.0087,14.6033],[-85.0094,14.5992],[-85.0022,14.5986],[-85.0039,14.5953],[-84.9968,14.599],[-84.9902,14.5958],[-84.9889,14.5899],[-84.9956,14.5787],[-84.9937,14.5772],[-84.9969,14.574],[-84.9968,14.564],[-85.0002,14.5637],[-84.9984,14.5597],[-85.0026,14.5581],[-85.0018,14.5421],[-84.9958,14.5358],[-84.9994,14.5331],[-84.9969,14.5306],[-85.0017,14.5301],[-85.0028,14.5242],[-84.9946,14.5107],[-84.9879,14.506],[-84.9769,14.5075],[-84.9748,14.5035],[-84.9689,14.5031],[-84.9708,14.4979],[-84.9634,14.4937],[-84.9693,14.4892],[-84.9685,14.4809],[-84.972,14.4771],[-84.9764,14.4778],[-84.9785,14.4675],[-84.9831,14.4691],[-84.9835,14.4638],[-84.9807,14.4617],[-84.9879,14.454],[-84.9811,14.4502],[-84.9849,14.4466],[-84.9799,14.4423],[-84.9842,14.4381],[-84.9794,14.4189],[-84.9868,14.4157],[-84.9871,14.4113],[-84.9922,14.4136],[-84.9968,14.4073],[-84.9951,14.3998],[-84.9873,14.3975],[-84.9848,14.3904],[-84.9794,14.3883],[-84.9803,14.3746],[-84.9777,14.3681],[-84.9716,14.3649],[-84.9704,14.3693],[-84.9672,14.3696],[-84.9658,14.3589],[-84.9605,14.3569],[-84.9587,14.3497],[-84.9513,14.3522],[-84.9479,14.3387],[-84.941,14.3343],[-84.8277,14.335],[-84.8783,14.1235],[-84.8815,14.1052],[-84.8766,14.1019],[-84.8835,14.0975],[-84.8794,14.0838],[-84.883,14.0796],[-84.8778,14.0787],[-84.8723,14.0567],[-84.8605,14.0386],[-84.8734,13.9805],[-84.9008,13.9621],[-85.0349,13.7694],[-85.0668,13.7375],[-85.165,13.7885],[-85.3003,13.7025],[-85.3752,13.7005],[-85.3963,13.6528],[-85.4343,13.6287],[-85.4279,13.6203],[-85.4205,13.6178],[-85.4151,13.6037],[-85.4065,13.6043],[-85.4029,13.587],[-85.4077,13.5465],[-85.3942,13.529],[-85.4055,13.5152],[-85.4069,13.5008],[-85.4218,13.4961],[-85.4695,13.4448],[-85.4876,13.4345],[-85.4993,13.3972],[-85.505,13.3929],[-85.5065,13.3842],[-85.501,13.3689],[-85.5073,13.369],[-85.5102,13.3598],[-85.5073,13.3586],[-85.5089,13.3558],[-85.5051,13.3459],[-85.4999,13.3426],[-85.5006,13.3395],[-85.4974,13.3395],[-85.4946,13.3308],[-85.4835,13.3272],[-85.4772,13.3174],[-85.4776,13.313],[-85.4753,13.3136],[-85.4759,13.3096],[-85.4601,13.2926],[-85.448,13.2847],[-85.4399,13.2709],[-85.4382,13.2601],[-85.4277,13.2586],[-85.4183,13.2515],[-85.4135,13.2517],[-85.412,13.2463],[-85.4069,13.2461],[-85.4033,13.2351],[-85.3986,13.2327],[-85.3997,13.2285],[-85.3862,13.2167],[-85.3783,13.204],[-85.3676,13.1976],[-85.356,13.2034],[-85.3507,13.2021],[-85.345,13.2086],[-85.3352,13.2074],[-85.3301,13.195],[-85.32,13.1928],[-85.3177,13.1851],[-85.3107,13.1826],[-85.3118,13.1753],[-85.3052,13.1743],[-85.298,13.1805],[-85.2904,13.1758],[-85.2962,13.1686],[-85.2942,13.1639],[-85.2867,13.1649],[-85.2819,13.1575],[-85.2718,13.1597],[-85.2739,13.1493],[-85.2697,13.1458],[-85.2618,13.1508],[-85.2546,13.1425],[-85.2486,13.1415],[-85.2352,13.1535],[-85.2266,13.1512],[-85.2161,13.1552],[-85.2001,13.1683],[-85.1897,13.1508],[-85.1791,13.1417],[-85.1734,13.1517],[-85.1736,13.1617],[-85.177,13.1652],[-85.1744,13.1684],[-85.1497,13.1717],[-85.1385,13.1575],[-85.1327,13.1781],[-85.1246,13.1744],[-85.1092,13.1839],[-85.1049,13.1836],[-85.073,13.1731],[-85.0717,13.1582],[-85.0779,13.1564],[-85.0849,13.1591],[-85.0854,13.1535],[-85.0893,13.1516],[-85.0819,13.1305]]],[[[-82.7511,14.3548],[-82.7664,14.3501],[-82.7519,14.3502],[-82.7343,14.376],[-82.741,14.397],[-82.736,14.4039],[-82.7437,14.4171],[-82.7687,14.4149],[-82.7667,14.4187],[-82.7696,14.4201],[-82.7731,14.418],[-82.7717,14.414],[-82.7828,14.4126],[-82.7804,14.407],[-82.7851,14.4063],[-82.7891,14.397],[-82.7799,14.4008],[-82.7978,14.3745],[-82.7964,14.369],[-82.7885,14.3734],[-82.7832,14.3672],[-82.8067,14.3682],[-82.8085,14.361],[-82.8166,14.3528],[-82.7773,14.3571],[-82.7765,14.3479],[-82.7693,14.3487],[-82.7702,14.3513],[-82.7482,14.3641],[-82.7469,14.3616],[-82.7511,14.3548]]]]}},{"type":"Feature","properties":{"id":"raccs","bbox":[-85.1986,10.9424,-82.9721,13.3111]},"geometry":{"type":"MultiPolygon","coordinates":[[[[-83.6825,11.9907],[-83.681,11.9952],[-83.691,11.9986],[-83.6947,11.994],[-83.6929,11.9881],[-83.6825,11.9907]]],[[[-83.742,11.9407],[-83.7423,11.9327],[-83.7376,11.9315],[-83.7445,11.9298],[-83.7436,11.9216],[-83.7485,11.9105],[-83.7438,11.9098],[-83.7377,11.9016],[-83.7405,11.9],[-83.7371,11.8941],[-83.739,11.8787],[-83.7296,11.8739],[-83.7278,11.8785],[-83.7298,11.8731],[-83.7251,11.8718],[-83.7231,11.8786],[-83.7222,11.8693],[-83.7204,11.877],[-83.7156,11.8629],[-83.7268,11.9349],[-83.7231,11.9694],[-83.7171,11.987],[-83.7091,11.9987],[-83.7214,12.0009],[-83.7313,11.9918],[-83.7342,11.9696],[-83.7474,11.9545],[-83.742,11.9407]]],[[[-83.0618,12.1832],[-83.0641,12.1715],[-83.0711,12.1667],[-83.0658,12.1598],[-83.0671,12.1507],[-83.0638,12.1462],[-83.0569,12.1482],[-83.0489,12.1655],[-83.0386,12.1668],[-83.0317,12.1769],[-83.0454,12.1863],[-83.0618,12.1832]]],[[[-82.9904,12.2987],[-82.9901,12.2882],[-82.9821,12.287],[-82.9754,12.2747],[-82.9721,12.2759],[-82.9792,12.3019],[-82.9904,12.2987]]],[[[-83.6767,12.3579],[-83.666,12.3556],[-83.66,12.3741],[-83.6661,12.3896],[-83.6767,12.3579]]],[[[-84.6038,11.847],[-84.5967,11.8476],[-84.5961,11.8396],[-84.5892,11.837],[-84.5869,11.8299],[-84.581,11.8304],[-84.5774,11.8254],[-84.5791,11.8149],[-84.5643,11.7779],[-84.5461,11.7737],[-84.5683,11.7013],[-84.5317,11.6593],[-84.5303,11.6368],[-84.5233,11.6133],[-84.5328,11.5967],[-84.5516,11.5918],[-84.5527,11.5789],[-84.5649,11.5674],[-84.5543,11.5443],[-84.5638,11.5215],[-84.5627,11.4853],[-84.5461,11.4549],[-84.5202,11.4586],[-84.4757,11.4196],[-84.4542,11.4124],[-84.4368,11.4005],[-84.3263,11.2814],[-84.2989,11.2771],[-84.2177,11.2309],[-84.1711,11.1429],[-84.1606,11.1432],[-84.158,11.1386],[-84.15,11.1375],[-84.1489,11.1333],[-84.1387,11.1352],[-84.1322,11.1304],[-84.1284,11.134],[-84.1201,11.1307],[-84.1099,11.1344],[-84.1039,11.129],[-84.0962,11.1314],[-84.0855,11.1216],[-84.0712,11.1323],[-84.0655,11.1292],[-84.0614,11.1335],[-84.059,11.1285],[-84.0523,11.1318],[-84.0514,11.1282],[-84.0476,11.1291],[-84.0574,11.1233],[-84.051,11.1206],[-84.0532,11.1166],[-84.0514,11.1081],[-84.0474,11.1052],[-84.0495,11.1026],[-84.0437,11.0986],[-84.0445,11.0934],[-84.0383,11.0934],[-84.0353,11.0875],[-84.0286,11.0858],[-84.0273,11.0826],[-84.0215,11.0865],[-84.0238,11.0889],[-84.0167,11.0882],[-84.0104,11.094],[-84.0075,11.0899],[-84.002,11.0997],[-83.9933,11.1011],[-83.9885,11.098],[-83.9874,11.1036],[-83.9822,11.1022],[-83.9782,11.1077],[-83.9731,11.1001],[-83.9641,11.1023],[-83.9665,11.0992],[-83.9641,11.0939],[-83.9609,11.0966],[-83.9622,11.0999],[-83.9445,11.1034],[-83.9439,11.109],[-83.9476,11.1065],[-83.946,11.1134],[-83.9356,11.1116],[-83.9349,11.1158],[-83.9288,11.1084],[-83.9201,11.1098],[-83.9146,11.1202],[-83.9105,11.1171],[-83.9073,11.122],[-83.9038,11.1218],[-83.8991,11.112],[-83.9027,11.1109],[-83.901,11.1],[-83.9048,11.0848],[-83.8978,11.0756],[-83.8916,11.0731],[-83.8912,11.0647],[-83.8951,11.0645],[-83.8965,11.0587],[-83.8892,11.0551],[-83.8852,11.0442],[-83.8807,11.0432],[-83.8763,11.0512],[-83.87,11.0541],[-83.8438,11.0493],[-83.8167,11.0515],[-83.7994,11.0346],[-83.7632,10.9793],[-83.7488,10.9624],[-83.7204,10.9424],[-83.7156,10.9437],[-83.7254,10.948],[-83.7525,10.9738],[-83.7871,11.0247],[-83.807,11.0629],[-83.8287,11.1175],[-83.8561,11.2053],[-83.8744,11.2931],[-83.8744,11.343],[-83.8664,11.3985],[-83.8609,11.3995],[-83.8586,11.41],[-83.8525,11.4117],[-83.8396,11.4368],[-83.8323,11.4375],[-83.8273,11.4474],[-83.8225,11.4443],[-83.8181,11.4479],[-83.8134,11.4439],[-83.8019,11.4438],[-83.7995,11.4405],[-83.7924,11.4717],[-83.79,11.4774],[-83.7815,11.474],[-83.7727,11.5103],[-83.7509,11.561],[-83.7412,11.561],[-83.7326,11.5666],[-83.725,11.5663],[-83.7242,11.5635],[-83.7175,11.5661],[-83.7135,11.5613],[-83.7147,11.5644],[-83.7067,11.5794],[-83.6914,11.588],[-83.6938,11.5909],[-83.6768,11.6049],[-83.6604,11.5973],[-83.6603,11.5926],[-83.6528,11.589],[-83.6533,11.5937],[-83.6454,11.5944],[-83.6481,11.5971],[-83.646,11.6037],[-83.6422,11.6042],[-83.646,11.6059],[-83.6436,11.617],[-83.6496,11.6183],[-83.6547,11.6261],[-83.6661,11.6918],[-83.6709,11.6919],[-83.6703,11.6963],[-83.6753,11.696],[-83.679,11.7001],[-83.679,11.7023],[-83.6763,11.7047],[-83.678,11.6995],[-83.6733,11.6968],[-83.6737,11.6997],[-83.6691,11.7],[-83.6667,11.6932],[-83.6781,11.7643],[-83.6873,11.7967],[-83.6909,11.7995],[-83.6974,11.8172],[-83.7024,11.8545],[-83.7068,11.8571],[-83.7202,11.8568],[-83.7294,11.8663],[-83.7415,11.8707],[-83.7409,11.8669],[-83.7472,11.8595],[-83.7474,11.8474],[-83.7513,11.8388],[-83.7482,11.8127],[-83.7434,11.8105],[-83.7451,11.8047],[-83.7515,11.8007],[-83.7638,11.803],[-83.7815,11.8],[-83.7878,11.8061],[-83.7866,11.8142],[-83.7965,11.8168],[-83.813,11.8318],[-83.8202,11.848],[-83.8145,11.8576],[-83.8263,11.8644],[-83.835,11.8642],[-83.8404,11.8805],[-83.8232,11.8947],[-83.8112,11.8969],[-83.802,11.9026],[-83.7994,11.9071],[-83.8029,11.9152],[-83.7985,11.9177],[-83.7989,11.9226],[-83.7883,11.931],[-83.7799,11.9326],[-83.7802,11.9395],[-83.769,11.9435],[-83.7704,11.9493],[-83.7655,11.9516],[-83.7741,11.9593],[-83.7693,11.9688],[-83.7728,11.9786],[-83.7601,11.9878],[-83.7653,11.9949],[-83.7623,12.0002],[-83.7645,12.0051],[-83.7586,12.0075],[-83.7565,12.015],[-83.761,12.0174],[-83.7583,12.0213],[-83.7638,12.0265],[-83.7608,12.029],[-83.762,12.0339],[-83.7762,12.0415],[-83.774,12.0482],[-83.7832,12.0511],[-83.783,12.0557],[-83.7926,12.0517],[-83.7963,12.0564],[-83.7999,12.0518],[-83.8044,12.0519],[-83.8035,12.061],[-83.7934,12.0562],[-83.7834,12.0577],[-83.7741,12.0515],[-83.7715,12.0569],[-83.7733,12.0503],[-83.7608,12.0373],[-83.7568,12.052],[-83.7538,12.0382],[-83.7503,12.0373],[-83.744,12.0528],[-83.7445,12.0459],[-83.7403,12.0532],[-83.7241,12.057],[-83.6881,12.0128],[-83.6862,12.0068],[-83.6911,12.005],[-83.6839,12.0017],[-83.6891,12.1081],[-83.685,12.1789],[-83.6827,12.184],[-83.6792,12.1837],[-83.6731,12.2362],[-83.6592,12.2832],[-83.6461,12.3106],[-83.618,12.3521],[-83.6307,12.3651],[-83.6487,12.3533],[-83.6531,12.3465],[-83.6542,12.335],[-83.6622,12.3335],[-83.6579,12.3254],[-83.6579,12.3178],[-83.6603,12.3072],[-83.6689,12.3033],[-83.6644,12.294],[-83.6649,12.2848],[-83.6705,12.2708],[-83.6784,12.2713],[-83.6809,12.2741],[-83.6784,12.2799],[-83.6803,12.2847],[-83.6777,12.2863],[-83.679,12.292],[-83.6756,12.3011],[-83.6788,12.3035],[-83.6752,12.3076],[-83.6721,12.3232],[-83.6632,12.3256],[-83.6678,12.3307],[-83.6712,12.3454],[-83.6772,12.3463],[-83.6953,12.3365],[-83.7023,12.3242],[-83.7073,12.3232],[-83.7173,12.3262],[-83.732,12.3371],[-83.7302,12.3473],[-83.7365,12.3643],[-83.7347,12.3853],[-83.7202,12.4006],[-83.7329,12.4269],[-83.7288,12.4436],[-83.7342,12.471],[-83.7389,12.4784],[-83.7472,12.4743],[-83.7542,12.4823],[-83.7639,12.4778],[-83.7718,12.4682],[-83.7823,12.4766],[-83.7837,12.4882],[-83.7773,12.4993],[-83.7777,12.53],[-83.7729,12.5312],[-83.7706,12.5369],[-83.7654,12.538],[-83.7607,12.5452],[-83.7457,12.5541],[-83.7372,12.5519],[-83.7136,12.5537],[-83.7013,12.5493],[-83.6897,12.5646],[-83.684,12.5652],[-83.6818,12.5692],[-83.6695,12.5705],[-83.6555,12.5872],[-83.6427,12.5952],[-83.6429,12.6051],[-83.6312,12.6006],[-83.6222,12.6044],[-83.6158,12.6113],[-83.6088,12.6268],[-83.5957,12.6238],[-83.604,12.6356],[-83.5974,12.6437],[-83.6076,12.6552],[-83.6026,12.6661],[-83.6004,12.684],[-83.6037,12.6959],[-83.6186,12.7081],[-83.6271,12.7214],[-83.6223,12.7204],[-83.6169,12.7243],[-83.6197,12.7387],[-83.6236,12.7453],[-83.6311,12.7494],[-83.6402,12.7435],[-83.648,12.7489],[-83.6586,12.7469],[-83.6572,12.7619],[-83.6449,12.7718],[-83.6521,12.7914],[-83.6584,12.7878],[-83.6655,12.7941],[-83.6574,12.7906],[-83.6536,12.7963],[-83.6554,12.7991],[-83.6427,12.8011],[-83.6342,12.8119],[-83.6231,12.8183],[-83.6054,12.8214],[-83.5895,12.8124],[-83.5614,12.8047],[-83.5464,12.7902],[-83.5429,12.773],[-83.5439,12.7565],[-83.5631,12.7429],[-83.5662,12.7375],[-83.564,12.7367],[-83.5639,12.7215],[-83.56,12.7267],[-83.5537,12.7271],[-83.5574,12.7244],[-83.5588,12.717],[-83.5538,12.709],[-83.558,12.7082],[-83.5586,12.7121],[-83.5663,12.6862],[-83.5726,12.6769],[-83.5723,12.6684],[-83.5653,12.6575],[-83.5632,12.6451],[-83.5593,12.6476],[-83.5624,12.5944],[-83.579,12.56],[-83.5751,12.5549],[-83.5692,12.5387],[-83.5794,12.5594],[-83.5956,12.5601],[-83.6122,12.5649],[-83.6239,12.558],[-83.6276,12.559],[-83.6265,12.5682],[-83.6312,12.5795],[-83.6339,12.5744],[-83.6363,12.5589],[-83.6344,12.5496],[-83.6393,12.5367],[-83.6361,12.5092],[-83.6398,12.4772],[-83.6293,12.4688],[-83.6031,12.4222],[-83.6106,12.4095],[-83.6213,12.4053],[-83.6358,12.3877],[-83.6364,12.3797],[-83.6417,12.3746],[-83.6248,12.3659],[-83.6215,12.3685],[-83.623,12.3641],[-83.6201,12.3633],[-83.5912,12.3824],[-83.5735,12.3883],[-83.5691,12.3933],[-83.5581,12.3948],[-83.5337,12.394],[-83.5215,12.3885],[-83.5018,12.3853],[-83.4917,12.3927],[-83.4862,12.4615],[-83.5259,12.5242],[-83.5391,12.5686],[-83.5434,12.5977],[-83.5451,12.6534],[-83.533,12.7757],[-83.527,12.8146],[-83.5048,12.9009],[-83.5147,12.9101],[-83.5399,13.0264],[-83.5448,13.0233],[-83.5585,13.0304],[-83.5803,13.0243],[-83.5822,13.021],[-83.5974,13.033],[-83.611,13.035],[-83.6258,13.0472],[-83.6345,13.0459],[-83.6398,13.0497],[-83.6414,13.0679],[-83.6601,13.0778],[-83.645,13.0933],[-83.6561,13.0919],[-83.6769,13.0989],[-83.6771,13.1014],[-83.6959,13.1109],[-83.7091,13.1098],[-83.7176,13.1174],[-83.7311,13.1129],[-83.731,13.1207],[-83.7495,13.1324],[-83.7809,13.1289],[-83.785,13.1498],[-83.775,13.1822],[-83.775,13.191],[-83.7763,13.1956],[-83.7932,13.2052],[-83.7969,13.2105],[-83.7959,13.2209],[-83.7989,13.2232],[-83.7981,13.2259],[-83.7904,13.2265],[-83.7891,13.2319],[-83.7846,13.2307],[-83.7801,13.2424],[-83.7829,13.2494],[-83.797,13.248],[-83.8044,13.2429],[-83.8091,13.2442],[-83.8186,13.2407],[-83.8246,13.2454],[-83.835,13.2444],[-83.8507,13.2542],[-83.8612,13.2656],[-83.8776,13.2587],[-83.8941,13.2598],[-84.1293,13.2995],[-84.1299,13.2967],[-84.1332,13.2986],[-84.1348,13.3062],[-84.1474,13.3111],[-84.1522,13.3084],[-84.1515,13.2964],[-84.1546,13.2976],[-84.1614,13.2921],[-84.1826,13.2926],[-84.1899,13.287],[-84.2018,13.2911],[-84.2096,13.2883],[-84.2134,13.2834],[-84.2164,13.2845],[-84.2219,13.2759],[-84.2398,13.2694],[-84.2499,13.2688],[-84.258,13.2745],[-84.2581,13.2796],[-84.2637,13.2857],[-84.2692,13.281],[-84.2756,13.2825],[-84.2837,13.2794],[-84.2994,13.2857],[-84.3317,13.2578],[-84.536,13.2556],[-84.7619,13.2265],[-84.8023,13.1503],[-84.8116,13.1468],[-84.8169,13.1508],[-84.8232,13.1488],[-84.8282,13.1551],[-84.8351,13.1526],[-84.8419,13.141],[-84.8486,13.1428],[-84.8538,13.1327],[-84.8517,13.1277],[-84.8579,13.1256],[-84.8861,13.1296],[-84.8855,13.1208],[-84.8934,13.1208],[-84.8948,13.1246],[-84.9067,13.126],[-84.908,13.1289],[-84.9125,13.1271],[-84.9182,13.1223],[-84.9234,13.1227],[-84.932,13.1143],[-84.9325,13.1105],[-84.9273,13.1089],[-84.9267,13.1015],[-84.942,13.0966],[-84.9462,13.1042],[-84.9494,13.0919],[-84.9663,13.0999],[-84.9653,13.0937],[-84.9682,13.0878],[-84.9699,13.0919],[-84.9914,13.0991],[-85.0012,13.1076],[-85.0063,13.0981],[-85.0129,13.1021],[-85.0125,13.1051],[-85.0157,13.0995],[-85.0188,13.1031],[-85.0301,13.1034],[-85.0357,13.1003],[-85.0341,13.1045],[-85.0392,13.1076],[-85.0428,13.0971],[-85.0472,13.0999],[-85.0462,13.1025],[-85.0522,13.1047],[-85.0555,13.113],[-85.0708,13.1211],[-85.0805,13.1306],[-85.0854,13.1227],[-85.0958,13.1217],[-85.1057,13.1273],[-85.112,13.1009],[-85.1067,13.0896],[-85.0893,13.0705],[-85.0913,13.0673],[-85.1066,13.0559],[-85.1062,13.0466],[-85.1154,13.0458],[-85.1153,13.0412],[-85.122,13.0404],[-85.1219,13.0368],[-85.1259,13.0377],[-85.131,13.0339],[-85.1307,13.0242],[-85.1377,13.018],[-85.1415,13.0184],[-85.1454,13.0095],[-85.1423,13.0046],[-85.1469,12.9976],[-85.1475,12.9881],[-85.1522,12.9846],[-85.1515,12.9791],[-85.1547,12.9795],[-85.1576,12.9755],[-85.161,12.9786],[-85.1678,13.0007],[-85.1789,13.007],[-85.1908,12.983],[-85.1974,12.9798],[-85.191,12.9644],[-85.178,12.9481],[-85.186,12.9468],[-85.1888,12.9426],[-85.192,12.9239],[-85.189,12.9192],[-85.1905,12.9143],[-85.1866,12.9122],[-85.183,12.9023],[-85.19,12.8824],[-85.1855,12.8765],[-85.1925,12.8611],[-85.1957,12.8615],[-85.1983,12.8519],[-85.1986,12.8449],[-85.1883,12.8304],[-85.1872,12.8144],[-85.1796,12.8057],[-85.1642,12.8096],[-85.1639,12.8135],[-85.1479,12.8075],[-85.1375,12.7915],[-85.1222,12.785],[-85.1104,12.7952],[-85.096,12.8004],[-85.0905,12.7985],[-85.0809,12.8008],[-85.0788,12.7931],[-85.0579,12.7792],[-85.0517,12.7821],[-85.0476,12.7735],[-85.0293,12.7535],[-85.0226,12.7553],[-85.0158,12.7442],[-85.0164,12.7373],[-85.0103,12.7364],[-85.005,12.7304],[-85.0082,12.7273],[-85.0061,12.7246],[-85.0088,12.7161],[-85.0049,12.7082],[-85.0074,12.6923],[-85.0008,12.6892],[-85.0001,12.6834],[-84.996,12.6844],[-84.9973,12.6815],[-84.9898,12.6751],[-84.9894,12.6692],[-84.98,12.6624],[-84.9527,12.6298],[-84.9481,12.6174],[-84.9359,12.6159],[-84.9336,12.6138],[-84.9358,12.6121],[-84.9309,12.6104],[-84.9323,12.6039],[-84.9284,12.5934],[-84.9213,12.5909],[-84.9143,12.5813],[-84.9051,12.5777],[-84.8983,12.5698],[-84.8943,12.5631],[-84.8942,12.5512],[-84.8887,12.5431],[-84.89,12.5279],[-84.887,12.5264],[-84.8853,12.5177],[-84.883,12.5158],[-84.8796,12.5189],[-84.8731,12.5082],[-84.8734,12.4987],[-84.8694,12.4936],[-84.8509,12.4878],[-84.8418,12.4911],[-84.8424,12.4875],[-84.8374,12.4818],[-84.8391,12.4771],[-84.8511,12.4719],[-84.845,12.4619],[-84.8502,12.4574],[-84.849,12.448],[-84.8591,12.4324],[-84.8569,12.4258],[-84.8724,12.4117],[-84.863,12.4076],[-84.8471,12.3777],[-84.8449,12.3541],[-84.8022,12.3386],[-84.7956,12.3098],[-84.7753,12.2781],[-84.7909,12.2561],[-84.7994,12.2516],[-84.7972,12.2473],[-84.8008,12.2403],[-84.7717,12.1953],[-84.7639,12.1769],[-84.7537,12.1715],[-84.7575,12.1665],[-84.7579,12.1583],[-84.7349,12.127],[-84.7247,12.0235],[-84.7263,12.0019],[-84.6722,11.9724],[-84.5903,11.9409],[-84.5757,11.9223],[-84.5497,11.9058],[-84.5249,11.873],[-84.5375,11.8726],[-84.565,11.8546],[-84.584,11.8592],[-84.5886,11.8664],[-84.6057,11.8675],[-84.6038,11.847]]]]}},{"type":"Feature","properties":{"id":"jinotega","bbox":[-86.2615,12.9896,-84.8277,14.6135]},"geometry":{"type":"Polygon","coordinates":[[[-86.2048,13.3956],[-86.2123,13.385],[-86.2331,13.3704],[-86.2345,13.367],[-86.2291,13.3617],[-86.2365,13.3596],[-86.2309,13.3512],[-86.2315,13.3464],[-86.2369,13.3441],[-86.2355,13.3397],[-86.2406,13.3344],[-86.2433,13.325],[-86.2575,13.3156],[-86.2443,13.2898],[-86.2353,13.2531],[-86.2615,13.1865],[-86.2147,13.1722],[-86.2015,13.1625],[-86.1948,13.1439],[-86.1647,13.1091],[-86.1169,13.1038],[-86.1068,13.0531],[-86.0929,13.039],[-86.0882,13.0459],[-86.0858,13.0399],[-86.0799,13.0381],[-86.0728,13.0416],[-86.0682,13.0287],[-86.0616,13.0256],[-86.0542,13.0162],[-86.032,13.0167],[-86.0207,13.0067],[-86.0165,12.9947],[-85.9927,13.0009],[-85.9824,12.997],[-85.9867,13.0085],[-85.9857,13.0143],[-85.9752,13.0231],[-85.9685,13.0247],[-85.962,13.0198],[-85.9445,12.9896],[-85.9211,12.9988],[-85.9213,13.0189],[-85.9187,13.0244],[-85.9069,13.0324],[-85.9004,13.0309],[-85.9061,13.054],[-85.9063,13.0703],[-85.8929,13.0745],[-85.8906,13.0721],[-85.881,13.0732],[-85.8692,13.0854],[-85.8562,13.0837],[-85.8361,13.1003],[-85.8102,13.1327],[-85.7374,13.2111],[-85.74,13.2167],[-85.7335,13.2387],[-85.7166,13.2555],[-85.7043,13.2533],[-85.6988,13.2563],[-85.6868,13.2464],[-85.6759,13.2487],[-85.6404,13.2693],[-85.6499,13.2776],[-85.6553,13.2903],[-85.6502,13.2981],[-85.6454,13.2996],[-85.6356,13.3246],[-85.6302,13.3323],[-85.6256,13.333],[-85.6244,13.3394],[-85.6045,13.3245],[-85.5897,13.3329],[-85.5592,13.3195],[-85.553,13.3198],[-85.545,13.3273],[-85.5051,13.3459],[-85.5089,13.3558],[-85.5073,13.3586],[-85.5102,13.3598],[-85.5073,13.369],[-85.501,13.3689],[-85.5065,13.3842],[-85.505,13.3929],[-85.4993,13.3972],[-85.4876,13.4345],[-85.4695,13.4448],[-85.4218,13.4961],[-85.4069,13.5008],[-85.4055,13.5152],[-85.3942,13.529],[-85.4077,13.5465],[-85.4029,13.587],[-85.4065,13.6043],[-85.4151,13.6037],[-85.4205,13.6178],[-85.4279,13.6203],[-85.4343,13.6287],[-85.3963,13.6528],[-85.3752,13.7005],[-85.3003,13.7025],[-85.165,13.7885],[-85.0668,13.7375],[-85.0349,13.7694],[-84.9008,13.9621],[-84.8734,13.9805],[-84.8605,14.0386],[-84.8723,14.0567],[-84.8778,14.0787],[-84.883,14.0796],[-84.8794,14.0838],[-84.8835,14.0975],[-84.8766,14.1019],[-84.8815,14.1052],[-84.8783,14.1235],[-84.8277,14.335],[-84.941,14.3343],[-84.9479,14.3387],[-84.9513,14.3522],[-84.9587,14.3497],[-84.9605,14.3569],[-84.9658,14.3589],[-84.9672,14.3696],[-84.9704,14.3693],[-84.9716,14.3649],[-84.9777,14.3681],[-84.9803,14.3746],[-84.9794,14.3883],[-84.9848,14.3904],[-84.9873,14.3975],[-84.9951,14.3998],[-84.9968,14.4073],[-84.9922,14.4136],[-84.9871,14.4113],[-84.9868,14.4157],[-84.9794,14.4189],[-84.9842,14.4381],[-84.9799,14.4423],[-84.9849,14.4466],[-84.9811,14.4502],[-84.9879,14.454],[-84.9807,14.4617],[-84.9835,14.4638],[-84.9831,14.4691],[-84.9785,14.4675],[-84.9764,14.4778],[-84.972,14.4771],[-84.9685,14.4809],[-84.9693,14.4892],[-84.9634,14.4937],[-84.9708,14.4979],[-84.9689,14.5031],[-84.9748,14.5035],[-84.9769,14.5075],[-84.9879,14.506],[-84.9946,14.5107],[-85.0028,14.5242],[-85.0017,14.5301],[-84.9969,14.5306],[-84.9994,14.5331],[-84.9958,14.5358],[-85.0018,14.5421],[-85.0026,14.5581],[-84.9984,14.5597],[-85.0002,14.5637],[-84.9968,14.564],[-84.9969,14.574],[-84.9937,14.5772],[-84.9956,14.5787],[-84.9889,14.5899],[-84.9902,14.5958],[-84.9968,14.599],[-85.0039,14.5953],[-85.0022,14.5986],[-85.0094,14.5992],[-85.0087,14.6033],[-85.0188,14.6135],[-85.0239,14.6106],[-85.0217,14.6077],[-85.0427,14.5748],[-85.059,14.5687],[-85.0638,14.5602],[-85.0745,14.5599],[-85.085,14.5524],[-85.096,14.5526],[-85.103,14.5571],[-85.1121,14.5762],[-85.119,14.5787],[-85.1228,14.586],[-85.1343,14.5761],[-85.1469,14.5766],[-85.1516,14.5718],[-85.1516,14.5671],[-85.1432,14.5644],[-85.1406,14.555],[-85.1473,14.5427],[-85.1389,14.5161],[-85.1472,14.5056],[-85.1507,14.4849],[-85.1634,14.4813],[-85.1654,14.4752],[-85.1727,14.4766],[-85.184,14.4679],[-85.1811,14.4613],[-85.1852,14.4458],[-85.1816,14.4394],[-85.1812,14.4283],[-85.1885,14.4238],[-85.1918,14.4072],[-85.2,14.4082],[-85.2028,14.4055],[-85.2018,14.3969],[-85.2056,14.3866],[-85.2208,14.3768],[-85.2193,14.3689],[-85.2086,14.3702],[-85.196,14.3635],[-85.1984,14.3571],[-85.1948,14.3526],[-85.1982,14.3459],[-85.192,14.3298],[-85.1854,14.3342],[-85.1809,14.3333],[-85.1804,14.3163],[-85.1534,14.3023],[-85.1589,14.2878],[-85.1775,14.2698],[-85.1845,14.2504],[-85.1883,14.2491],[-85.2009,14.2568],[-85.209,14.2532],[-85.2414,14.2522],[-85.2677,14.2617],[-85.2709,14.2588],[-85.2855,14.2598],[-85.2883,14.2515],[-85.2924,14.25],[-85.2981,14.2497],[-85.303,14.2545],[-85.3101,14.2557],[-85.319,14.2547],[-85.3312,14.2478],[-85.3394,14.2488],[-85.3417,14.2472],[-85.3408,14.233],[-85.3554,14.2315],[-85.3545,14.227],[-85.3609,14.2131],[-85.3681,14.2129],[-85.3671,14.2219],[-85.37,14.2247],[-85.3779,14.225],[-85.3827,14.2216],[-85.3811,14.2172],[-85.3748,14.2152],[-85.3767,14.2074],[-85.3734,14.1979],[-85.3808,14.1949],[-85.3746,14.1826],[-85.398,14.1628],[-85.4007,14.1456],[-85.3947,14.1398],[-85.3972,14.1357],[-85.4043,14.1337],[-85.4041,14.1231],[-85.4129,14.1227],[-85.4201,14.1156],[-85.4263,14.1163],[-85.4306,14.107],[-85.4432,14.106],[-85.4539,14.1144],[-85.4659,14.0937],[-85.4776,14.0941],[-85.4775,14.0844],[-85.4811,14.0846],[-85.4833,14.0893],[-85.4925,14.0883],[-85.4909,14.0801],[-85.4937,14.0762],[-85.4977,14.0779],[-85.4996,14.0874],[-85.5055,14.088],[-85.5089,14.0763],[-85.5067,14.0635],[-85.5094,14.0603],[-85.5206,14.0599],[-85.5169,14.0525],[-85.5194,14.0475],[-85.5278,14.0495],[-85.536,14.0462],[-85.5608,14.0511],[-85.5552,14.0637],[-85.5733,14.0651],[-85.5784,14.059],[-85.5769,14.044],[-85.5853,14.0402],[-85.5907,14.0449],[-85.6039,14.0266],[-85.6154,14.0193],[-85.6236,14.0211],[-85.6247,14.0092],[-85.6639,14.012],[-85.6673,13.9857],[-85.6764,13.98],[-85.6834,13.9805],[-85.6866,13.9883],[-85.7068,13.993],[-85.724,13.982],[-85.7241,13.9762],[-85.7329,13.9697],[-85.7534,13.9678],[-85.7549,13.9622],[-85.7522,13.9565],[-85.7576,13.9515],[-85.753,13.9419],[-85.7519,13.9304],[-85.7572,13.9123],[-85.7553,13.9047],[-85.7641,13.8842],[-85.7541,13.8818],[-85.7384,13.871],[-85.7333,13.8615],[-85.7422,13.8531],[-85.738,13.8431],[-85.7468,13.8398],[-85.7524,13.8305],[-85.7567,13.8287],[-85.7619,13.8127],[-85.7694,13.8126],[-85.7817,13.7964],[-85.7881,13.7956],[-85.7864,13.7866],[-85.7952,13.7867],[-85.7924,13.7771],[-85.7778,13.7601],[-85.7916,13.7438],[-85.7908,13.7322],[-85.7831,13.7273],[-85.7891,13.7211],[-85.7898,13.7108],[-85.7971,13.7115],[-85.7965,13.6958],[-85.8041,13.6924],[-85.8001,13.6857],[-85.8133,13.6811],[-85.8101,13.6563],[-85.8154,13.6538],[-85.8186,13.6467],[-85.8108,13.6414],[-85.82,13.6349],[-85.8197,13.6242],[-85.8285,13.6194],[-85.8311,13.6015],[-85.8269,13.5941],[-85.8296,13.5902],[-85.8177,13.5813],[-85.8252,13.5763],[-85.8251,13.5668],[-85.8304,13.561],[-85.8258,13.5544],[-85.8181,13.5588],[-85.8118,13.5461],[-85.8162,13.5412],[-85.8296,13.5361],[-85.8251,13.5248],[-85.8289,13.5149],[-85.8368,13.5155],[-85.8379,13.5222],[-85.8496,13.5203],[-85.8571,13.5061],[-85.864,13.5094],[-85.8826,13.5107],[-85.8859,13.4988],[-85.8928,13.4965],[-85.8958,13.4918],[-85.9008,13.493],[-85.9061,13.4901],[-85.9097,13.4756],[-85.905,13.4659],[-85.9081,13.4642],[-85.9144,13.4662],[-85.9203,13.4743],[-85.9338,13.4725],[-85.9463,13.4934],[-85.9686,13.5028],[-85.9767,13.514],[-85.983,13.5127],[-85.9926,13.5177],[-85.998,13.5155],[-86.0094,13.5189],[-86.0204,13.5171],[-86.0251,13.4963],[-86.0473,13.5005],[-86.0505,13.5049],[-86.0552,13.4982],[-86.0628,13.5001],[-86.0719,13.4957],[-86.0761,13.4883],[-86.0757,13.4795],[-86.0847,13.4756],[-86.0797,13.4714],[-86.0835,13.4635],[-86.0888,13.4647],[-86.0946,13.4547],[-86.1034,13.4534],[-86.1063,13.4475],[-86.1136,13.4474],[-86.1196,13.4405],[-86.1283,13.4393],[-86.137,13.4424],[-86.1482,13.438],[-86.1518,13.4418],[-86.157,13.4405],[-86.1662,13.4459],[-86.1772,13.4415],[-86.1894,13.4262],[-86.1844,13.4208],[-86.1913,13.4179],[-86.1982,13.4056],[-86.2093,13.3997],[-86.2048,13.3956]]]}},{"type":"Feature","properties":{"id":"carazo","bbox":[-86.4494,11.5185,-86.0842,11.9544]},"geometry":{"type":"Polygon","coordinates":[[[-86.4417,11.7201],[-86.4072,11.6982],[-86.382,11.6762],[-86.3506,11.6335],[-86.3486,11.6356],[-86.3557,11.6466],[-86.354,11.6487],[-86.3553,11.6468],[-86.3478,11.6355],[-86.3499,11.634],[-86.3384,11.6244],[-86.3092,11.6065],[-86.2601,11.5854],[-86.2449,11.5701],[-86.227,11.5613],[-86.2259,11.5644],[-86.2264,11.5607],[-86.219,11.556],[-86.2175,11.5582],[-86.2186,11.5559],[-86.2053,11.549],[-86.2001,11.5394],[-86.1783,11.5266],[-86.1727,11.5185],[-86.1723,11.5247],[-86.1636,11.5285],[-86.1655,11.5319],[-86.1558,11.5447],[-86.1568,11.5542],[-86.147,11.5582],[-86.1496,11.5743],[-86.1376,11.5873],[-86.1191,11.5994],[-86.1179,11.603],[-86.1213,11.6044],[-86.116,11.6057],[-86.1168,11.6086],[-86.1108,11.6086],[-86.1119,11.6111],[-86.1076,11.6152],[-86.1143,11.6278],[-86.1225,11.6327],[-86.1332,11.6581],[-86.1207,11.665],[-86.1277,11.6709],[-86.1301,11.6936],[-86.1265,11.7102],[-86.1212,11.7163],[-86.1187,11.7138],[-86.1023,11.7162],[-86.1009,11.7137],[-86.0895,11.7172],[-86.0926,11.721],[-86.093,11.7332],[-86.1016,11.7398],[-86.0854,11.7622],[-86.093,11.7796],[-86.0912,11.7862],[-86.1018,11.7974],[-86.0925,11.7994],[-86.0939,11.8139],[-86.0842,11.8286],[-86.0885,11.8399],[-86.0981,11.8388],[-86.0987,11.834],[-86.1026,11.8331],[-86.1313,11.8439],[-86.1441,11.8414],[-86.1588,11.8443],[-86.1542,11.856],[-86.1642,11.8565],[-86.1627,11.8802],[-86.1539,11.8888],[-86.1707,11.8955],[-86.1746,11.9053],[-86.1728,11.909],[-86.1782,11.9141],[-86.1738,11.9247],[-86.1967,11.9226],[-86.2049,11.9252],[-86.2081,11.9229],[-86.2223,11.9311],[-86.2458,11.9318],[-86.2931,11.9544],[-86.3085,11.9345],[-86.328,11.9212],[-86.3259,11.9129],[-86.3436,11.8969],[-86.3449,11.873],[-86.3536,11.8616],[-86.351,11.8576],[-86.3645,11.8424],[-86.3699,11.8281],[-86.3749,11.8258],[-86.3795,11.8108],[-86.3908,11.8011],[-86.3918,11.7932],[-86.4008,11.7871],[-86.4081,11.7886],[-86.4091,11.7855],[-86.4157,11.7848],[-86.418,11.7808],[-86.4215,11.781],[-86.424,11.7739],[-86.4386,11.7667],[-86.4394,11.7562],[-86.4456,11.7538],[-86.4417,11.7509],[-86.4494,11.7485],[-86.4442,11.7439],[-86.4384,11.7297],[-86.4417,11.7201]]]}},{"type":"Feature","properties":{"id":"granada","bbox":[-86.1332,11.6022,-85.6704,12.2146]},"geometry":{"type":"Polygon","coordinates":[[[-85.8247,12.2107],[-85.8537,12.2013],[-85.8577,12.2034],[-85.863,12.2011],[-85.8679,12.2067],[-85.8774,12.209],[-85.8795,12.2136],[-85.8825,12.2095],[-85.889,12.2145],[-85.8928,12.2116],[-85.8992,12.2146],[-85.919,12.2107],[-85.9144,12.2005],[-85.927,12.1879],[-86.015,12.1503],[-86.0073,12.143],[-86.0061,12.1349],[-85.9904,12.1314],[-85.9604,12.0918],[-85.984,12.0713],[-85.9885,11.9954],[-85.9976,11.9882],[-86.0038,11.9888],[-86.0126,11.9839],[-86.0164,11.9855],[-86.0195,11.9703],[-86.0353,11.9505],[-86.0309,11.9234],[-86.0529,11.8958],[-86.0637,11.893],[-86.0607,11.8865],[-86.0699,11.8778],[-86.087,11.8742],[-86.0779,11.8624],[-86.085,11.8592],[-86.0836,11.857],[-86.0893,11.8525],[-86.0889,11.837],[-86.0842,11.8286],[-86.0939,11.8139],[-86.0925,11.7994],[-86.1018,11.7974],[-86.0912,11.7862],[-86.093,11.7796],[-86.0854,11.7622],[-86.1016,11.7398],[-86.093,11.7332],[-86.0926,11.721],[-86.0895,11.7172],[-86.1009,11.7137],[-86.1023,11.7162],[-86.1187,11.7138],[-86.1212,11.7163],[-86.1265,11.7102],[-86.1301,11.6936],[-86.1271,11.6827],[-86.1288,11.6781],[-86.1277,11.6709],[-86.1207,11.665],[-86.1332,11.6581],[-86.1225,11.6327],[-86.1143,11.6278],[-86.1115,11.6197],[-86.107,11.6173],[-86.1088,11.6127],[-86.0974,11.6109],[-86.0847,11.6022],[-86.0756,11.6044],[-86.0659,11.6118],[-86.0508,11.608],[-86.0376,11.6084],[-86.0265,11.6194],[-86.0221,11.6285],[-86.0088,11.6343],[-85.9951,11.6477],[-85.9645,11.6586],[-85.9531,11.6669],[-85.9476,11.6663],[-85.9388,11.6719],[-85.9204,11.6759],[-85.9058,11.6852],[-85.9048,11.6901],[-85.9,11.6936],[-85.8977,11.6937],[-85.8985,11.6895],[-85.8969,11.6921],[-85.8944,11.6897],[-85.893,11.6994],[-85.8824,11.7126],[-85.8783,11.7005],[-85.6704,11.7096],[-85.7858,12.1219],[-85.7859,12.1319],[-85.7938,12.1357],[-85.7932,12.1397],[-85.7967,12.1416],[-85.813,12.1413],[-85.8165,12.1461],[-85.8125,12.1866],[-85.8256,12.2026],[-85.8247,12.2107]]]}},{"type":"Feature","properties":{"id":"masaya","bbox":[-86.2931,11.8331,-85.9604,12.1535]},"geometry":{"type":"Polygon","coordinates":[[[-86.2931,11.9544],[-86.2458,11.9318],[-86.2223,11.9311],[-86.2081,11.9229],[-86.2049,11.9252],[-86.1967,11.9226],[-86.1738,11.9247],[-86.1782,11.9141],[-86.1728,11.909],[-86.1746,11.9053],[-86.1707,11.8955],[-86.1539,11.8888],[-86.1627,11.8802],[-86.1642,11.8565],[-86.1542,11.856],[-86.1588,11.8443],[-86.1441,11.8414],[-86.1313,11.8439],[-86.1026,11.8331],[-86.0987,11.834],[-86.0981,11.8388],[-86.0885,11.8399],[-86.0893,11.8525],[-86.0836,11.857],[-86.085,11.8592],[-86.0779,11.8624],[-86.087,11.8742],[-86.0699,11.8778],[-86.0607,11.8865],[-86.0637,11.893],[-86.0529,11.8958],[-86.0309,11.9234],[-86.0353,11.9505],[-86.0195,11.9703],[-86.0164,11.9855],[-86.0126,11.9839],[-86.0038,11.9888],[-85.9976,11.9882],[-85.9885,11.9954],[-85.984,12.0713],[-85.9604,12.0918],[-85.9904,12.1314],[-86.0061,12.1349],[-86.0073,12.143],[-86.015,12.1503],[-86.0229,12.1466],[-86.0327,12.1531],[-86.0542,12.1535],[-86.0661,12.1444],[-86.0695,12.1368],[-86.097,12.1424],[-86.1257,12.1412],[-86.1451,12.0987],[-86.1707,12.0917],[-86.2108,12.0643],[-86.1743,12.0256],[-86.1907,11.9805],[-86.2407,11.9726],[-86.2637,11.9922],[-86.2931,11.9544]]]}},{"type":"Feature","properties":{"id":"rivas","bbox":[-86.1727,11.0442,-85.1497,11.7126]},"geometry":{"type":"Polygon","coordinates":[[[-85.1497,11.3671],[-85.6704,11.7096],[-85.8783,11.7005],[-85.8824,11.7126],[-85.893,11.6994],[-85.8944,11.6897],[-85.8969,11.6921],[-85.8985,11.6895],[-85.8977,11.6937],[-85.9,11.6936],[-85.9048,11.6901],[-85.9058,11.6852],[-85.9204,11.6759],[-85.9388,11.6719],[-85.9476,11.6663],[-85.9531,11.6669],[-85.9645,11.6586],[-85.9951,11.6477],[-86.0088,11.6343],[-86.0221,11.6285],[-86.0265,11.6194],[-86.0376,11.6084],[-86.0508,11.608],[-86.0659,11.6118],[-86.0756,11.6044],[-86.0847,11.6022],[-86.0974,11.6109],[-86.1068,11.6133],[-86.1132,11.6074],[-86.1168,11.6086],[-86.116,11.6057],[-86.1213,11.6044],[-86.1179,11.603],[-86.1191,11.5994],[-86.1376,11.5873],[-86.1496,11.5743],[-86.147,11.5582],[-86.1568,11.5542],[-86.1558,11.5447],[-86.1655,11.5319],[-86.1636,11.5285],[-86.1723,11.5247],[-86.1727,11.5185],[-86.1655,11.5071],[-86.1727,11.4993],[-86.1599,11.4869],[-86.1595,11.4814],[-86.1523,11.4815],[-86.1476,11.4772],[-86.1174,11.4656],[-86.1048,11.4556],[-86.1055,11.4522],[-86.0869,11.4424],[-86.0842,11.4334],[-86.0816,11.4342],[-86.0733,11.4253],[-86.0704,11.4131],[-86.062,11.4132],[-86.0387,11.3993],[-86.0326,11.3873],[-86.0377,11.3833],[-86.0313,11.3841],[-86.0323,11.3795],[-86.0202,11.3758],[-86.0202,11.3723],[-86.0126,11.3731],[-86.0083,11.3678],[-86.0106,11.3621],[-86.0041,11.3605],[-85.9996,11.3547],[-85.9981,11.3569],[-85.9953,11.3548],[-85.9931,11.346],[-85.9884,11.3478],[-85.9814,11.3411],[-85.9799,11.3457],[-85.9721,11.343],[-85.953,11.3304],[-85.9476,11.3217],[-85.9341,11.3119],[-85.9365,11.309],[-85.9343,11.3067],[-85.9284,11.3032],[-85.9252,11.3065],[-85.921,11.3053],[-85.9163,11.299],[-85.9203,11.295],[-85.9142,11.2964],[-85.9045,11.287],[-85.9049,11.2806],[-85.8992,11.2762],[-85.9036,11.2735],[-85.8976,11.2696],[-85.8946,11.272],[-85.8905,11.269],[-85.8886,11.2716],[-85.8861,11.2701],[-85.8871,11.2663],[-85.893,11.2658],[-85.8937,11.2629],[-85.8835,11.2558],[-85.88,11.2604],[-85.8746,11.2571],[-85.874,11.2514],[-85.879,11.25],[-85.8813,11.2425],[-85.8771,11.2438],[-85.8741,11.2391],[-85.8718,11.2425],[-85.8671,11.238],[-85.8681,11.2346],[-85.8634,11.2361],[-85.8538,11.2217],[-85.848,11.2205],[-85.849,11.2174],[-85.8431,11.2126],[-85.8429,11.2064],[-85.8355,11.2042],[-85.8144,11.1785],[-85.8002,11.153],[-85.8019,11.1468],[-85.7951,11.1445],[-85.7946,11.1339],[-85.7996,11.1302],[-85.7897,11.1204],[-85.7902,11.117],[-85.785,11.1146],[-85.7804,11.1171],[-85.7788,11.1084],[-85.7752,11.1115],[-85.7699,11.106],[-85.7627,11.1077],[-85.7582,11.0986],[-85.7454,11.097],[-85.7427,11.0874],[-85.7374,11.0918],[-85.7325,11.0879],[-85.7194,11.0884],[-85.7085,11.0801],[-85.6929,11.0793],[-85.6099,11.2196],[-85.5604,11.21],[-85.5233,11.1681],[-85.4237,11.1288],[-85.3572,11.1262],[-85.2303,11.0637],[-85.1782,11.0442],[-85.1808,11.0552],[-85.1773,11.0595],[-85.1848,11.0683],[-85.1892,11.0851],[-85.1856,11.088],[-85.1907,11.095],[-85.1497,11.3671]]]}}]}